{"type":"Topology","arcs":[],"objects":{"public_transport_stops":{"type":"GeometryCollection","geometries":[{"type":"Point","coordinates":[144.95277706,-37.8186631],"properties":{"STOP_ID":"vic:rail:SSS","STOP_NAME":"Southern Cross Railway Station","MODE":"INTERSTATE TRAIN"}},{"type":"Point","coordinates":[144.9417746,-37.80128591],"properties":{"STOP_ID":"126323","STOP_NAME":"Arden Railway Station Rail Replacement Bus Stop","MODE":"METRO TRAIN"}},{"type":"Point","coordinates":[144.95955183,-37.79994612],"properties":{"STOP_ID":"126324","STOP_NAME":"Parkville Railway Station Rail Replacement Bus Stop","MODE":"METRO TRAIN"}},{"type":"Point","coordinates":[144.91024855,-37.78267119],"properties":{"STOP_ID":"726320","STOP_NAME":"Showgrounds Railway Station Rail Replacement Bus Stop","MODE":"METRO TRAIN"}},{"type":"Point","coordinates":[144.76080944,-37.86660595],"properties":{"STOP_ID":"vic:rail:ACF","STOP_NAME":"Aircraft Railway Station","MODE":"METRO TRAIN"}},{"type":"Point","coordinates":[144.82470361,-37.77765281],"properties":{"STOP_ID":"vic:rail:ALB","STOP_NAME":"Albion Railway Station","MODE":"METRO TRAIN"}},{"type":"Point","coordinates":[145.07965567,-37.86832039],"properties":{"STOP_ID":"vic:rail:ALM","STOP_NAME":"Alamein Railway Station","MODE":"METRO TRAIN"}},{"type":"Point","coordinates":[145.03125493,-37.77839363],"properties":{"STOP_ID":"vic:rail:ALP","STOP_NAME":"Alphington Railway Station","MODE":"METRO TRAIN"}},{"type":"Point","coordinates":[144.82964474,-37.8671476],"properties":{"STOP_ID":"vic:rail:ALT","STOP_NAME":"Altona Railway Station","MODE":"METRO TRAIN"}},{"type":"Point","coordinates":[145.01932554,-37.85645238],"properties":{"STOP_ID":"vic:rail:ARM","STOP_NAME":"Armadale Railway Station","MODE":"METRO TRAIN"}},{"type":"Point","coordinates":[144.94120851,-37.80122194],"properties":{"STOP_ID":"vic:rail:ARN","STOP_NAME":"Arden Railway Station","MODE":"METRO TRAIN"}},{"type":"Point","coordinates":[145.08134376,-37.86196753],"properties":{"STOP_ID":"vic:rail:ASH","STOP_NAME":"Ashburton Railway Station","MODE":"METRO TRAIN"}},{"type":"Point","coordinates":[145.10214962,-38.02722019],"properties":{"STOP_ID":"vic:rail:ASP","STOP_NAME":"Aspendale Railway Station","MODE":"METRO TRAIN"}},{"type":"Point","coordinates":[144.92182074,-37.77530609],"properties":{"STOP_ID":"vic:rail:ASV","STOP_NAME":"Ascot Vale Railway Station","MODE":"METRO TRAIN"}},{"type":"Point","coordinates":[144.96068404,-37.76124203],"properties":{"STOP_ID":"vic:rail:ASY","STOP_NAME":"Anstey Railway Station","MODE":"METRO TRAIN"}},{"type":"Point","coordinates":[145.04584366,-37.82239831],"properties":{"STOP_ID":"vic:rail:AUB","STOP_NAME":"Auburn Railway Station","MODE":"METRO TRAIN"}},{"type":"Point","coordinates":[144.97279042,-37.83331103],"properties":{"STOP_ID":"vic:rail:AZC","STOP_NAME":"Anzac Railway Station","MODE":"METRO TRAIN"}},{"type":"Point","coordinates":[144.96284055,-37.73352285],"properties":{"STOP_ID":"vic:rail:BAT","STOP_NAME":"Batman Railway Station","MODE":"METRO TRAIN"}},{"type":"Point","coordinates":[145.26813639,-37.84173004],"properties":{"STOP_ID":"vic:rail:BAY","STOP_NAME":"Bayswater Railway Station","MODE":"METRO TRAIN"}},{"type":"Point","coordinates":[144.98915355,-37.92648432],"properties":{"STOP_ID":"vic:rail:BBH","STOP_NAME":"Brighton Beach Railway Station","MODE":"METRO TRAIN"}},{"type":"Point","coordinates":[145.15001354,-37.82007075],"properties":{"STOP_ID":"vic:rail:BBN","STOP_NAME":"Blackburn Railway Station","MODE":"METRO TRAIN"}},{"type":"Point","coordinates":[144.9935121,-37.86948773],"properties":{"STOP_ID":"vic:rail:BCV","STOP_NAME":"Balaclava Railway Station","MODE":"METRO TRAIN"}},{"type":"Point","coordinates":[145.35529128,-37.9091021],"properties":{"STOP_ID":"vic:rail:BEG","STOP_NAME":"Belgrave Railway Station","MODE":"METRO TRAIN"}},{"type":"Point","coordinates":[145.00015503,-37.74556212],"properties":{"STOP_ID":"vic:rail:BEL","STOP_NAME":"Bell Railway Station","MODE":"METRO TRAIN"}},{"type":"Point","coordinates":[145.03699513,-37.91742457],"properties":{"STOP_ID":"vic:rail:BEN","STOP_NAME":"Bentleigh Railway Station","MODE":"METRO TRAIN"}},{"type":"Point","coordinates":[145.34541666,-38.03998037],"properties":{"STOP_ID":"vic:rail:BEW","STOP_NAME":"Berwick Railway Station","MODE":"METRO TRAIN"}},{"type":"Point","coordinates":[145.36607374,-38.05083135],"properties":{"STOP_ID":"vic:rail:BFD","STOP_NAME":"Beaconsfield Railway Station","MODE":"METRO TRAIN"}},{"type":"Point","coordinates":[145.17802653,-38.33739032],"properties":{"STOP_ID":"vic:rail:BIT","STOP_NAME":"Bittern Railway Station","MODE":"METRO TRAIN"}},{"type":"Point","coordinates":[145.00755515,-37.82756022],"properties":{"STOP_ID":"vic:rail:BLY","STOP_NAME":"Burnley Railway Station","MODE":"METRO TRAIN"}},{"type":"Point","coordinates":[144.91961322,-37.68304926],"properties":{"STOP_ID":"vic:rail:BMS","STOP_NAME":"Broadmeadows Railway Station","MODE":"METRO TRAIN"}},{"type":"Point","coordinates":[145.1201058,-38.06547485],"properties":{"STOP_ID":"vic:rail:BON","STOP_NAME":"Bonbeach Railway Station","MODE":"METRO TRAIN"}},{"type":"Point","coordinates":[145.28470457,-37.86040238],"properties":{"STOP_ID":"vic:rail:BOR","STOP_NAME":"Boronia Railway Station","MODE":"METRO TRAIN"}},{"type":"Point","coordinates":[145.12142893,-37.81922165],"properties":{"STOP_ID":"vic:rail:BOX","STOP_NAME":"Box Hill Railway Station","MODE":"METRO TRAIN"}},{"type":"Point","coordinates":[145.08051107,-37.85156328],"properties":{"STOP_ID":"vic:rail:BWD","STOP_NAME":"Burwood Railway Station","MODE":"METRO TRAIN"}},{"type":"Point","coordinates":[144.95958654,-37.76772055],"properties":{"STOP_ID":"vic:rail:BWK","STOP_NAME":"Brunswick Railway Station","MODE":"METRO TRAIN"}},{"type":"Point","coordinates":[145.16052609,-38.19404306],"properties":{"STOP_ID":"vic:rail:BXR","STOP_NAME":"Baxter Railway Station","MODE":"METRO TRAIN"}},{"type":"Point","coordinates":[145.05869718,-37.82656714],"properties":{"STOP_ID":"vic:rail:CAM","STOP_NAME":"Camberwell Railway Station","MODE":"METRO TRAIN"}},{"type":"Point","coordinates":[145.1228096,-38.07653027],"properties":{"STOP_ID":"vic:rail:CAR","STOP_NAME":"Carrum Railway Station","MODE":"METRO TRAIN"}},{"type":"Point","coordinates":[145.28059898,-38.09953731],"properties":{"STOP_ID":"vic:rail:CBE","STOP_NAME":"Cranbourne Railway Station","MODE":"METRO TRAIN"}},{"type":"Point","coordinates":[145.08122424,-37.82448518],"properties":{"STOP_ID":"vic:rail:CBY","STOP_NAME":"Canterbury Railway Station","MODE":"METRO TRAIN"}},{"type":"Point","coordinates":[145.43779101,-38.07129047],"properties":{"STOP_ID":"vic:rail:CDA","STOP_NAME":"Cardinia Road Railway Station","MODE":"METRO TRAIN"}},{"type":"Point","coordinates":[145.28048737,-37.79530018],"properties":{"STOP_ID":"vic:rail:CDN","STOP_NAME":"Croydon Railway Station","MODE":"METRO TRAIN"}},{"type":"Point","coordinates":[145.04252478,-37.87745946],"properties":{"STOP_ID":"vic:rail:CFD","STOP_NAME":"Caulfield Railway Station","MODE":"METRO TRAIN"}},{"type":"Point","coordinates":[144.94330601,-37.6019248],"properties":{"STOP_ID":"vic:rail:CGB","STOP_NAME":"Craigieburn Railway Station","MODE":"METRO TRAIN"}},{"type":"Point","coordinates":[144.9954167,-37.78865745],"properties":{"STOP_ID":"vic:rail:CHL","STOP_NAME":"Clifton Hill Railway Station","MODE":"METRO TRAIN"}},{"type":"Point","coordinates":[145.08864793,-37.82429952],"properties":{"STOP_ID":"vic:rail:CHM","STOP_NAME":"Chatham Railway Station","MODE":"METRO TRAIN"}},{"type":"Point","coordinates":[145.12053436,-37.92468255],"properties":{"STOP_ID":"vic:rail:CLA","STOP_NAME":"Clayton Railway Station","MODE":"METRO TRAIN"}},{"type":"Point","coordinates":[144.92604123,-37.66111042],"properties":{"STOP_ID":"vic:rail:CLO","STOP_NAME":"Coolaroo Railway Station","MODE":"METRO TRAIN"}},{"type":"Point","coordinates":[145.05857506,-37.88624148],"properties":{"STOP_ID":"vic:rail:CNE","STOP_NAME":"Carnegie Railway Station","MODE":"METRO TRAIN"}},{"type":"Point","coordinates":[144.96333634,-37.74234502],"properties":{"STOP_ID":"vic:rail:COB","STOP_NAME":"Coburg Railway Station","MODE":"METRO TRAIN"}},{"type":"Point","coordinates":[145.1166795,-38.05329032],"properties":{"STOP_ID":"vic:rail:CSA","STOP_NAME":"Chelsea Railway Station","MODE":"METRO TRAIN"}},{"type":"Point","coordinates":[145.05455793,-37.96664989],"properties":{"STOP_ID":"vic:rail:CTM","STOP_NAME":"Cheltenham Railway Station","MODE":"METRO TRAIN"}},{"type":"Point","coordinates":[144.99374967,-37.80452593],"properties":{"STOP_ID":"vic:rail:CWD","STOP_NAME":"Collingwood Railway Station","MODE":"METRO TRAIN"}},{"type":"Point","coordinates":[144.99705619,-37.764101],"properties":{"STOP_ID":"vic:rail:CXT","STOP_NAME":"Croxton Railway Station","MODE":"METRO TRAIN"}},{"type":"Point","coordinates":[145.03847598,-37.77496341],"properties":{"STOP_ID":"vic:rail:DBN","STOP_NAME":"Darebin Railway Station","MODE":"METRO TRAIN"}},{"type":"Point","coordinates":[145.15853819,-37.67337905],"properties":{"STOP_ID":"vic:rail:DCK","STOP_NAME":"Diamond Creek Railway Station","MODE":"METRO TRAIN"}},{"type":"Point","coordinates":[145.00824163,-37.77918729],"properties":{"STOP_ID":"vic:rail:DEN","STOP_NAME":"Dennis Railway Station","MODE":"METRO TRAIN"}},{"type":"Point","coordinates":[145.06295083,-37.86895684],"properties":{"STOP_ID":"vic:rail:DLG","STOP_NAME":"Darling Railway Station","MODE":"METRO TRAIN"}},{"type":"Point","coordinates":[145.20972537,-37.98996792],"properties":{"STOP_ID":"vic:rail:DNG","STOP_NAME":"Dandenong Railway Station","MODE":"METRO TRAIN"}},{"type":"Point","coordinates":[144.71982218,-37.62696051],"properties":{"STOP_ID":"vic:rail:DRT","STOP_NAME":"Diggers Rest Railway Station","MODE":"METRO TRAIN"}},{"type":"Point","coordinates":[145.05394269,-37.76358553],"properties":{"STOP_ID":"vic:rail:EAG","STOP_NAME":"Eaglemont Railway Station","MODE":"METRO TRAIN"}},{"type":"Point","coordinates":[145.06819025,-37.82589419],"properties":{"STOP_ID":"vic:rail:ECM","STOP_NAME":"East Camberwell Railway Station","MODE":"METRO TRAIN"}},{"type":"Point","coordinates":[145.10758338,-38.03653574],"properties":{"STOP_ID":"vic:rail:EDI","STOP_NAME":"Edithvale Railway Station","MODE":"METRO TRAIN"}},{"type":"Point","coordinates":[145.00089787,-37.88475311],"properties":{"STOP_ID":"vic:rail:ELS","STOP_NAME":"Elsternwick Railway Station","MODE":"METRO TRAIN"}},{"type":"Point","coordinates":[145.14782202,-37.71354967],"properties":{"STOP_ID":"vic:rail:ELT","STOP_NAME":"Eltham Railway Station","MODE":"METRO TRAIN"}},{"type":"Point","coordinates":[145.06939324,-37.87692101],"properties":{"STOP_ID":"vic:rail:EMV","STOP_NAME":"East Malvern Railway Station","MODE":"METRO TRAIN"}},{"type":"Point","coordinates":[145.50635689,-38.08441136],"properties":{"STOP_ID":"vic:rail:EPH","STOP_NAME":"East Pakenham Railway Station ","MODE":"METRO TRAIN"}},{"type":"Point","coordinates":[145.03107934,-37.65217784],"properties":{"STOP_ID":"vic:rail:EPP","STOP_NAME":"Epping Railway Station","MODE":"METRO TRAIN"}},{"type":"Point","coordinates":[144.99706569,-37.82639995],"properties":{"STOP_ID":"vic:rail:ERM","STOP_NAME":"East Richmond Railway Station","MODE":"METRO TRAIN"}},{"type":"Point","coordinates":[144.9161975,-37.7560117],"properties":{"STOP_ID":"vic:rail:ESD","STOP_NAME":"Essendon Railway Station","MODE":"METRO TRAIN"}},{"type":"Point","coordinates":[144.96054503,-37.71462129],"properties":{"STOP_ID":"vic:rail:FAK","STOP_NAME":"Fawkner Railway Station","MODE":"METRO TRAIN"}},{"type":"Point","coordinates":[144.93932328,-37.78813995],"properties":{"STOP_ID":"vic:rail:FBD","STOP_NAME":"Flemington Bridge Railway Station","MODE":"METRO TRAIN"}},{"type":"Point","coordinates":[145.0169053,-37.77917126],"properties":{"STOP_ID":"vic:rail:FFD","STOP_NAME":"Fairfield Railway Station","MODE":"METRO TRAIN"}},{"type":"Point","coordinates":[144.95566511,-37.8119815],"properties":{"STOP_ID":"vic:rail:FGS","STOP_NAME":"Flagstaff Railway Station","MODE":"METRO TRAIN"}},{"type":"Point","coordinates":[145.12616228,-38.14299007],"properties":{"STOP_ID":"vic:rail:FKN","STOP_NAME":"Frankston Railway Station","MODE":"METRO TRAIN"}},{"type":"Point","coordinates":[144.96696435,-37.81830513],"properties":{"STOP_ID":"vic:rail:FSS","STOP_NAME":"Flinders Street Railway Station","MODE":"METRO TRAIN"}},{"type":"Point","coordinates":[144.90202006,-37.80141343],"properties":{"STOP_ID":"vic:rail:FSY","STOP_NAME":"Footscray Railway Station","MODE":"METRO TRAIN"}},{"type":"Point","coordinates":[145.29525126,-37.88169799],"properties":{"STOP_ID":"vic:rail:FTG","STOP_NAME":"Ferntree Gully Railway Station","MODE":"METRO TRAIN"}},{"type":"Point","coordinates":[145.05165466,-37.85327908],"properties":{"STOP_ID":"vic:rail:GAR","STOP_NAME":"Gardiner Railway Station","MODE":"METRO TRAIN"}},{"type":"Point","coordinates":[144.92093868,-37.74720985],"properties":{"STOP_ID":"vic:rail:GBV","STOP_NAME":"Glenbervie Railway Station","MODE":"METRO TRAIN"}},{"type":"Point","coordinates":[145.03643883,-37.82146682],"properties":{"STOP_ID":"vic:rail:GFE","STOP_NAME":"Glenferrie Railway Station","MODE":"METRO TRAIN"}},{"type":"Point","coordinates":[145.04222285,-37.88971946],"properties":{"STOP_ID":"vic:rail:GHY","STOP_NAME":"Glen Huntly Railway Station ","MODE":"METRO TRAIN"}},{"type":"Point","coordinates":[144.81135895,-37.76008529],"properties":{"STOP_ID":"vic:rail:GIN","STOP_NAME":"Ginifer Railway Station","MODE":"METRO TRAIN"}},{"type":"Point","coordinates":[145.0582249,-37.85930842],"properties":{"STOP_ID":"vic:rail:GIR","STOP_NAME":"Glen Iris Railway Station","MODE":"METRO TRAIN"}},{"type":"Point","coordinates":[144.95887432,-37.700678],"properties":{"STOP_ID":"vic:rail:GOW","STOP_NAME":"Gowrie Railway Station","MODE":"METRO TRAIN"}},{"type":"Point","coordinates":[145.10793589,-37.70371477],"properties":{"STOP_ID":"vic:rail:GRN","STOP_NAME":"Greensborough Railway Station","MODE":"METRO TRAIN"}},{"type":"Point","coordinates":[144.9172204,-37.70453633],"properties":{"STOP_ID":"vic:rail:GRY","STOP_NAME":"Glenroy Railway Station","MODE":"METRO TRAIN"}},{"type":"Point","coordinates":[145.00416843,-37.89669508],"properties":{"STOP_ID":"vic:rail:GVE","STOP_NAME":"Gardenvale Railway Station","MODE":"METRO TRAIN"}},{"type":"Point","coordinates":[145.16205755,-37.87950407],"properties":{"STOP_ID":"vic:rail:GWY","STOP_NAME":"Glen Waverley Railway Station","MODE":"METRO TRAIN"}},{"type":"Point","coordinates":[145.00150445,-37.9379864],"properties":{"STOP_ID":"vic:rail:HAM","STOP_NAME":"Hampton Railway Station","MODE":"METRO TRAIN"}},{"type":"Point","coordinates":[145.02289866,-37.82182601],"properties":{"STOP_ID":"vic:rail:HAW","STOP_NAME":"Hawthorn Railway Station","MODE":"METRO TRAIN"}},{"type":"Point","coordinates":[145.19201689,-37.63939817],"properties":{"STOP_ID":"vic:rail:HBE","STOP_NAME":"Hurstbridge Railway Station","MODE":"METRO TRAIN"}},{"type":"Point","coordinates":[144.70074704,-37.88338025],"properties":{"STOP_ID":"vic:rail:HCG","STOP_NAME":"Hoppers Crossing Railway Station","MODE":"METRO TRAIN"}},{"type":"Point","coordinates":[145.06068552,-37.75707293],"properties":{"STOP_ID":"vic:rail:HDB","STOP_NAME":"Heidelberg Railway Station","MODE":"METRO TRAIN"}},{"type":"Point","coordinates":[145.02264711,-37.83465462],"properties":{"STOP_ID":"vic:rail:HEY","STOP_NAME":"Heyington Railway Station","MODE":"METRO TRAIN"}},{"type":"Point","coordinates":[145.0418718,-37.948425],"properties":{"STOP_ID":"vic:rail:HIG","STOP_NAME":"Highett Railway Station","MODE":"METRO TRAIN"}},{"type":"Point","coordinates":[145.00190352,-37.84458683],"properties":{"STOP_ID":"vic:rail:HKN","STOP_NAME":"Hawksburn Railway Station","MODE":"METRO TRAIN"}},{"type":"Point","coordinates":[145.2697768,-38.01774038],"properties":{"STOP_ID":"vic:rail:HLM","STOP_NAME":"Hallam Railway Station","MODE":"METRO TRAIN"}},{"type":"Point","coordinates":[145.24455538,-37.82832227],"properties":{"STOP_ID":"vic:rail:HMT","STOP_NAME":"Heathmont Railway Station","MODE":"METRO TRAIN"}},{"type":"Point","coordinates":[145.09066203,-37.87440222],"properties":{"STOP_ID":"vic:rail:HOL","STOP_NAME":"Holmesglen Railway Station","MODE":"METRO TRAIN"}},{"type":"Point","coordinates":[145.18597988,-38.30565853],"properties":{"STOP_ID":"vic:rail:HST","STOP_NAME":"Hastings Railway Station","MODE":"METRO TRAIN"}},{"type":"Point","coordinates":[145.21397044,-37.8188232],"properties":{"STOP_ID":"vic:rail:HTD","STOP_NAME":"Heatherdale Railway Station","MODE":"METRO TRAIN"}},{"type":"Point","coordinates":[145.07618607,-37.89419074],"properties":{"STOP_ID":"vic:rail:HUG","STOP_NAME":"Hughesdale Railway Station","MODE":"METRO TRAIN"}},{"type":"Point","coordinates":[145.10236432,-37.91101734],"properties":{"STOP_ID":"vic:rail:HUN","STOP_NAME":"Huntingdale Railway Station","MODE":"METRO TRAIN"}},{"type":"Point","coordinates":[145.07555959,-37.84398457],"properties":{"STOP_ID":"vic:rail:HWL","STOP_NAME":"Hartwell Railway Station","MODE":"METRO TRAIN"}},{"type":"Point","coordinates":[145.09729471,-37.62297489],"properties":{"STOP_ID":"vic:rail:HWS","STOP_NAME":"Hawkstowe Railway Station","MODE":"METRO TRAIN"}},{"type":"Point","coordinates":[145.04542519,-37.76889674],"properties":{"STOP_ID":"vic:rail:IVA","STOP_NAME":"Ivanhoe Railway Station","MODE":"METRO TRAIN"}},{"type":"Point","coordinates":[144.91585052,-37.69513079],"properties":{"STOP_ID":"vic:rail:JAC","STOP_NAME":"Jacana Railway Station","MODE":"METRO TRAIN"}},{"type":"Point","coordinates":[144.98409834,-37.81652702],"properties":{"STOP_ID":"vic:rail:JLI","STOP_NAME":"Jolimont-MCG Railway Station","MODE":"METRO TRAIN"}},{"type":"Point","coordinates":[145.11209016,-37.87360339],"properties":{"STOP_ID":"vic:rail:JOR","STOP_NAME":"Jordanville Railway Station","MODE":"METRO TRAIN"}},{"type":"Point","coordinates":[144.95871691,-37.77498702],"properties":{"STOP_ID":"vic:rail:JWL","STOP_NAME":"Jewell Railway Station","MODE":"METRO TRAIN"}},{"type":"Point","coordinates":[145.13537493,-38.12175231],"properties":{"STOP_ID":"vic:rail:KAN","STOP_NAME":"Kananook Railway Station","MODE":"METRO TRAIN"}},{"type":"Point","coordinates":[144.93052444,-37.79378022],"properties":{"STOP_ID":"vic:rail:KEN","STOP_NAME":"Kensington Railway Station","MODE":"METRO TRAIN"}},{"type":"Point","coordinates":[145.01188382,-37.69487012],"properties":{"STOP_ID":"vic:rail:KPK","STOP_NAME":"Keon Park Railway Station","MODE":"METRO TRAIN"}},{"type":"Point","coordinates":[144.79373807,-37.72927934],"properties":{"STOP_ID":"vic:rail:KPL","STOP_NAME":"Keilor Plains Railway Station","MODE":"METRO TRAIN"}},{"type":"Point","coordinates":[145.03355161,-37.83992894],"properties":{"STOP_ID":"vic:rail:KYG","STOP_NAME":"Kooyong Railway Station","MODE":"METRO TRAIN"}},{"type":"Point","coordinates":[145.14070271,-37.82078023],"properties":{"STOP_ID":"vic:rail:LAB","STOP_NAME":"Laburnum Railway Station","MODE":"METRO TRAIN"}},{"type":"Point","coordinates":[145.01719317,-37.66585075],"properties":{"STOP_ID":"vic:rail:LAL","STOP_NAME":"Lalor Railway Station","MODE":"METRO TRAIN"}},{"type":"Point","coordinates":[144.77261667,-37.86369404],"properties":{"STOP_ID":"vic:rail:LAV","STOP_NAME":"Laverton Railway Station","MODE":"METRO TRAIN"}},{"type":"Point","coordinates":[145.24925211,-38.05734985],"properties":{"STOP_ID":"vic:rail:LBK","STOP_NAME":"Lynbrook Railway Station","MODE":"METRO TRAIN"}},{"type":"Point","coordinates":[145.34582227,-37.75721264],"properties":{"STOP_ID":"vic:rail:LIL","STOP_NAME":"Lilydale Railway Station","MODE":"METRO TRAIN"}},{"type":"Point","coordinates":[145.13953396,-38.152034],"properties":{"STOP_ID":"vic:rail:LWA","STOP_NAME":"Leawarra Railway Station","MODE":"METRO TRAIN"}},{"type":"Point","coordinates":[144.93616633,-37.79426673],"properties":{"STOP_ID":"vic:rail:MAC","STOP_NAME":"Macaulay Railway Station","MODE":"METRO TRAIN"}},{"type":"Point","coordinates":[145.02929394,-37.8662533],"properties":{"STOP_ID":"vic:rail:MAL","STOP_NAME":"Malvern Railway Station","MODE":"METRO TRAIN"}},{"type":"Point","coordinates":[144.99629909,-37.91513441],"properties":{"STOP_ID":"vic:rail:MBN","STOP_NAME":"Middle Brighton Railway Station","MODE":"METRO TRAIN"}},{"type":"Point","coordinates":[145.06914332,-37.7260123],"properties":{"STOP_ID":"vic:rail:MCD","STOP_NAME":"Macleod Railway Station","MODE":"METRO TRAIN"}},{"type":"Point","coordinates":[144.96260489,-37.80993896],"properties":{"STOP_ID":"vic:rail:MCE","STOP_NAME":"Melbourne Central Railway Station","MODE":"METRO TRAIN"}},{"type":"Point","coordinates":[145.19220824,-37.81816668],"properties":{"STOP_ID":"vic:rail:MCH","STOP_NAME":"Mitcham Railway Station","MODE":"METRO TRAIN"}},{"type":"Point","coordinates":[145.03829897,-37.91030903],"properties":{"STOP_ID":"vic:rail:MCK","STOP_NAME":"McKinnon Railway Station","MODE":"METRO TRAIN"}},{"type":"Point","coordinates":[145.10095293,-37.60254907],"properties":{"STOP_ID":"vic:rail:MDD","STOP_NAME":"Mernda Railway Station","MODE":"METRO TRAIN"}},{"type":"Point","coordinates":[145.06580232,-37.98277704],"properties":{"STOP_ID":"vic:rail:MEN","STOP_NAME":"Mentone Railway Station","MODE":"METRO TRAIN"}},{"type":"Point","coordinates":[144.99297248,-37.77784668],"properties":{"STOP_ID":"vic:rail:MER","STOP_NAME":"Merri Railway Station","MODE":"METRO TRAIN"}},{"type":"Point","coordinates":[144.89147208,-37.8025047],"properties":{"STOP_ID":"vic:rail:MFY","STOP_NAME":"Middle Footscray Railway Station","MODE":"METRO TRAIN"}},{"type":"Point","coordinates":[144.96182303,-37.75448484],"properties":{"STOP_ID":"vic:rail:MLD","STOP_NAME":"Moreland Railway Station","MODE":"METRO TRAIN"}},{"type":"Point","coordinates":[145.3124024,-37.78474883],"properties":{"STOP_ID":"vic:rail:MLK","STOP_NAME":"Mooroolbark Railway Station","MODE":"METRO TRAIN"}},{"type":"Point","coordinates":[145.09212201,-37.64403391],"properties":{"STOP_ID":"vic:rail:MMR","STOP_NAME":"Middle Gorge Railway Station","MODE":"METRO TRAIN"}},{"type":"Point","coordinates":[145.12151574,-37.71529624],"properties":{"STOP_ID":"vic:rail:MMY","STOP_NAME":"Montmorency Railway Station","MODE":"METRO TRAIN"}},{"type":"Point","coordinates":[145.08765936,-38.00658295],"properties":{"STOP_ID":"vic:rail:MOR","STOP_NAME":"Mordialloc Railway Station","MODE":"METRO TRAIN"}},{"type":"Point","coordinates":[144.9191607,-37.76570666],"properties":{"STOP_ID":"vic:rail:MPD","STOP_NAME":"Moonee Ponds Railway Station","MODE":"METRO TRAIN"}},{"type":"Point","coordinates":[145.26351137,-38.07900048],"properties":{"STOP_ID":"vic:rail:MPK","STOP_NAME":"Merinda Park Railway Station","MODE":"METRO TRAIN"}},{"type":"Point","coordinates":[145.06737487,-37.89019832],"properties":{"STOP_ID":"vic:rail:MRB","STOP_NAME":"Murrumbeena Railway Station","MODE":"METRO TRAIN"}},{"type":"Point","coordinates":[145.03676929,-37.93447096],"properties":{"STOP_ID":"vic:rail:MRN","STOP_NAME":"Moorabbin Railway Station","MODE":"METRO TRAIN"}},{"type":"Point","coordinates":[145.18960249,-38.35403334],"properties":{"STOP_ID":"vic:rail:MRO","STOP_NAME":"Morradoo Railway Station","MODE":"METRO TRAIN"}},{"type":"Point","coordinates":[145.1280441,-37.87526408],"properties":{"STOP_ID":"vic:rail:MWY","STOP_NAME":"Mount Waverley Railway Station","MODE":"METRO TRAIN"}},{"type":"Point","coordinates":[144.96131355,-37.72093389],"properties":{"STOP_ID":"vic:rail:MYN","STOP_NAME":"Merlynston Railway Station","MODE":"METRO TRAIN"}},{"type":"Point","coordinates":[145.00261908,-37.90478832],"properties":{"STOP_ID":"vic:rail:NBN","STOP_NAME":"North Brighton Railway Station","MODE":"METRO TRAIN"}},{"type":"Point","coordinates":[144.99527721,-37.76986537],"properties":{"STOP_ID":"vic:rail:NCE","STOP_NAME":"Northcote Railway Station","MODE":"METRO TRAIN"}},{"type":"Point","coordinates":[144.92897847,-37.78732767],"properties":{"STOP_ID":"vic:rail:NKT","STOP_NAME":"Newmarket Railway Station","MODE":"METRO TRAIN"}},{"type":"Point","coordinates":[144.94151017,-37.80630984],"properties":{"STOP_ID":"vic:rail:NME","STOP_NAME":"North Melbourne Railway Station","MODE":"METRO TRAIN"}},{"type":"Point","coordinates":[145.17632482,-37.96661867],"properties":{"STOP_ID":"vic:rail:NPK","STOP_NAME":"Noble Park Railway Station","MODE":"METRO TRAIN"}},{"type":"Point","coordinates":[144.8835883,-37.84272637],"properties":{"STOP_ID":"vic:rail:NPT","STOP_NAME":"Newport Railway Station","MODE":"METRO TRAIN"}},{"type":"Point","coordinates":[144.99250026,-37.81039836],"properties":{"STOP_ID":"vic:rail:NRM","STOP_NAME":"North Richmond Railway Station","MODE":"METRO TRAIN"}},{"type":"Point","coordinates":[145.303993,-38.02777361],"properties":{"STOP_ID":"vic:rail:NWA","STOP_NAME":"Narre Warren Railway Station","MODE":"METRO TRAIN"}},{"type":"Point","coordinates":[145.1748915,-37.82061218],"properties":{"STOP_ID":"vic:rail:NWG","STOP_NAME":"Nunawading Railway Station","MODE":"METRO TRAIN"}},{"type":"Point","coordinates":[144.88906947,-37.85733348],"properties":{"STOP_ID":"vic:rail:NWN","STOP_NAME":"North Williamstown Railway Station","MODE":"METRO TRAIN"}},{"type":"Point","coordinates":[145.08830787,-37.90037214],"properties":{"STOP_ID":"vic:rail:OAK","STOP_NAME":"Oakleigh Railway Station","MODE":"METRO TRAIN"}},{"type":"Point","coordinates":[145.41098723,-38.06614572],"properties":{"STOP_ID":"vic:rail:OFC","STOP_NAME":"Officer Railway Station","MODE":"METRO TRAIN"}},{"type":"Point","coordinates":[144.92151877,-37.71794973],"properties":{"STOP_ID":"vic:rail:OKP","STOP_NAME":"Oak Park Railway Station","MODE":"METRO TRAIN"}},{"type":"Point","coordinates":[145.03961342,-37.90321167],"properties":{"STOP_ID":"vic:rail:OMD","STOP_NAME":"Ormond Railway Station","MODE":"METRO TRAIN"}},{"type":"Point","coordinates":[144.973119,-37.811337],"properties":{"STOP_ID":"vic:rail:PAR","STOP_NAME":"Parliament Railway Station","MODE":"METRO TRAIN"}},{"type":"Point","coordinates":[145.03547003,-37.92514919],"properties":{"STOP_ID":"vic:rail:PAT","STOP_NAME":"Patterson Railway Station","MODE":"METRO TRAIN"}},{"type":"Point","coordinates":[145.07632682,-37.99307882],"properties":{"STOP_ID":"vic:rail:PKD","STOP_NAME":"Parkdale Railway Station","MODE":"METRO TRAIN"}},{"type":"Point","coordinates":[145.48637907,-38.08061397],"properties":{"STOP_ID":"vic:rail:PKM","STOP_NAME":"Pakenham Railway Station","MODE":"METRO TRAIN"}},{"type":"Point","coordinates":[144.95954246,-37.79987386],"properties":{"STOP_ID":"vic:rail:PKV","STOP_NAME":"Parkville Railway Station","MODE":"METRO TRAIN"}},{"type":"Point","coordinates":[144.98985992,-37.84951848],"properties":{"STOP_ID":"vic:rail:PRA","STOP_NAME":"Prahran Railway Station","MODE":"METRO TRAIN"}},{"type":"Point","coordinates":[145.00052198,-37.73867424],"properties":{"STOP_ID":"vic:rail:PRE","STOP_NAME":"Preston Railway Station","MODE":"METRO TRAIN"}},{"type":"Point","coordinates":[144.92819562,-37.73075596],"properties":{"STOP_ID":"vic:rail:PVL","STOP_NAME":"Pascoe Vale Railway Station","MODE":"METRO TRAIN"}},{"type":"Point","coordinates":[144.90757709,-37.78721073],"properties":{"STOP_ID":"vic:rail:RCE","STOP_NAME":"Flemington Racecourse Railway Station","MODE":"METRO TRAIN"}},{"type":"Point","coordinates":[145.00277256,-37.72840277],"properties":{"STOP_ID":"vic:rail:REG","STOP_NAME":"Regent Railway Station","MODE":"METRO TRAIN"}},{"type":"Point","coordinates":[145.00699582,-37.71688492],"properties":{"STOP_ID":"vic:rail:RES","STOP_NAME":"Reservoir Railway Station","MODE":"METRO TRAIN"}},{"type":"Point","coordinates":[144.99525782,-37.87596086],"properties":{"STOP_ID":"vic:rail:RIP","STOP_NAME":"Ripponlea Railway Station","MODE":"METRO TRAIN"}},{"type":"Point","coordinates":[145.06964598,-37.83150543],"properties":{"STOP_ID":"vic:rail:RIV","STOP_NAME":"Riversdale Railway Station","MODE":"METRO TRAIN"}},{"type":"Point","coordinates":[144.99016426,-37.82407446],"properties":{"STOP_ID":"vic:rail:RMD","STOP_NAME":"Richmond Railway Station","MODE":"METRO TRAIN"}},{"type":"Point","coordinates":[145.06614029,-37.7428786],"properties":{"STOP_ID":"vic:rail:ROS","STOP_NAME":"Rosanna Railway Station","MODE":"METRO TRAIN"}},{"type":"Point","coordinates":[144.95230127,-37.78119293],"properties":{"STOP_ID":"vic:rail:RPK","STOP_NAME":"Royal Park Railway Station","MODE":"METRO TRAIN"}},{"type":"Point","coordinates":[144.99240708,-37.78321711],"properties":{"STOP_ID":"vic:rail:RUS","STOP_NAME":"Rushall Railway Station","MODE":"METRO TRAIN"}},{"type":"Point","coordinates":[145.00951662,-37.70789754],"properties":{"STOP_ID":"vic:rail:RUT","STOP_NAME":"Ruthven Railway Station","MODE":"METRO TRAIN"}},{"type":"Point","coordinates":[145.22896846,-37.81588648],"properties":{"STOP_ID":"vic:rail:RWD","STOP_NAME":"Ringwood Railway Station","MODE":"METRO TRAIN"}},{"type":"Point","coordinates":[145.25019091,-37.81196804],"properties":{"STOP_ID":"vic:rail:RWE","STOP_NAME":"Ringwood East Railway Station","MODE":"METRO TRAIN"}},{"type":"Point","coordinates":[144.93540368,-37.63823121],"properties":{"STOP_ID":"vic:rail:RXP","STOP_NAME":"Roxburgh Park Railway Station","MODE":"METRO TRAIN"}},{"type":"Point","coordinates":[144.80005045,-37.74486131],"properties":{"STOP_ID":"vic:rail:SAB","STOP_NAME":"St Albans Railway Station (St Albans)","MODE":"METRO TRAIN"}},{"type":"Point","coordinates":[145.1282304,-38.10402104],"properties":{"STOP_ID":"vic:rail:SEA","STOP_NAME":"Seaford Railway Station","MODE":"METRO TRAIN"}},{"type":"Point","coordinates":[144.89567157,-37.80900514],"properties":{"STOP_ID":"vic:rail:SEN","STOP_NAME":"Seddon Railway Station","MODE":"METRO TRAIN"}},{"type":"Point","coordinates":[144.91425689,-37.7834722],"properties":{"STOP_ID":"vic:rail:SGS","STOP_NAME":"Showgrounds Railway Station","MODE":"METRO TRAIN"}},{"type":"Point","coordinates":[144.84095773,-37.86784231],"properties":{"STOP_ID":"vic:rail:SHE","STOP_NAME":"Seaholme Railway Station","MODE":"METRO TRAIN"}},{"type":"Point","coordinates":[145.00456136,-37.95033018],"properties":{"STOP_ID":"vic:rail:SHM","STOP_NAME":"Sandringham Railway Station","MODE":"METRO TRAIN"}},{"type":"Point","coordinates":[144.92546901,-37.79953087],"properties":{"STOP_ID":"vic:rail:SKN","STOP_NAME":"South Kensington Railway Station","MODE":"METRO TRAIN"}},{"type":"Point","coordinates":[144.92731571,-37.74359132],"properties":{"STOP_ID":"vic:rail:SME","STOP_NAME":"Strathmore Railway Station","MODE":"METRO TRAIN"}},{"type":"Point","coordinates":[145.06701257,-37.64905033],"properties":{"STOP_ID":"vic:rail:SMG","STOP_NAME":"South Morang Railway Station","MODE":"METRO TRAIN"}},{"type":"Point","coordinates":[145.16282634,-37.95648655],"properties":{"STOP_ID":"vic:rail:SNP","STOP_NAME":"Sandown Park Railway Station","MODE":"METRO TRAIN"}},{"type":"Point","coordinates":[145.04864786,-37.95813507],"properties":{"STOP_ID":"vic:rail:SOU","STOP_NAME":"Southland Railway Station","MODE":"METRO TRAIN"}},{"type":"Point","coordinates":[145.15345183,-37.94950878],"properties":{"STOP_ID":"vic:rail:SPG","STOP_NAME":"Springvale Railway Station","MODE":"METRO TRAIN"}},{"type":"Point","coordinates":[144.88593345,-37.83063888],"properties":{"STOP_ID":"vic:rail:SPT","STOP_NAME":"Spotswood Railway Station","MODE":"METRO TRAIN"}},{"type":"Point","coordinates":[144.9632775,-37.80943693],"properties":{"STOP_ID":"vic:rail:STL","STOP_NAME":"State Library Railway Station","MODE":"METRO TRAIN"}},{"type":"Point","coordinates":[144.8328782,-37.78853633],"properties":{"STOP_ID":"vic:rail:SUN","STOP_NAME":"Sunshine Railway Station","MODE":"METRO TRAIN"}},{"type":"Point","coordinates":[144.72798098,-37.57928396],"properties":{"STOP_ID":"vic:rail:SUY","STOP_NAME":"Sunbury Railway Station","MODE":"METRO TRAIN"}},{"type":"Point","coordinates":[145.17624492,-38.22534196],"properties":{"STOP_ID":"vic:rail:SVE","STOP_NAME":"Somerville Railway Station","MODE":"METRO TRAIN"}},{"type":"Point","coordinates":[145.14978071,-37.87622062],"properties":{"STOP_ID":"vic:rail:SYN","STOP_NAME":"Syndal Railway Station","MODE":"METRO TRAIN"}},{"type":"Point","coordinates":[144.99234221,-37.83844935],"properties":{"STOP_ID":"vic:rail:SYR","STOP_NAME":"South Yarra Railway Station","MODE":"METRO TRAIN"}},{"type":"Point","coordinates":[145.18640071,-38.259815],"properties":{"STOP_ID":"vic:rail:TAB","STOP_NAME":"Tyabb Railway Station","MODE":"METRO TRAIN"}},{"type":"Point","coordinates":[144.99857152,-37.75505179],"properties":{"STOP_ID":"vic:rail:TBY","STOP_NAME":"Thornbury Railway Station","MODE":"METRO TRAIN"}},{"type":"Point","coordinates":[145.34299458,-37.90811849],"properties":{"STOP_ID":"vic:rail:TCM","STOP_NAME":"Tecoma Railway Station","MODE":"METRO TRAIN"}},{"type":"Point","coordinates":[145.04173374,-37.84936553],"properties":{"STOP_ID":"vic:rail:TGA","STOP_NAME":"Tooronga Railway Station","MODE":"METRO TRAIN"}},{"type":"Point","coordinates":[144.96709126,-37.81699161],"properties":{"STOP_ID":"vic:rail:THL","STOP_NAME":"Town Hall Railway Station","MODE":"METRO TRAIN"}},{"type":"Point","coordinates":[145.01390858,-37.85077381],"properties":{"STOP_ID":"vic:rail:TOR","STOP_NAME":"Toorak Railway Station","MODE":"METRO TRAIN"}},{"type":"Point","coordinates":[144.86294494,-37.7992509],"properties":{"STOP_ID":"vic:rail:TOT","STOP_NAME":"Tottenham Railway Station","MODE":"METRO TRAIN"}},{"type":"Point","coordinates":[145.01427887,-37.68033809],"properties":{"STOP_ID":"vic:rail:TSN","STOP_NAME":"Thomastown Railway Station","MODE":"METRO TRAIN"}},{"type":"Point","coordinates":[144.94673994,-37.66607779],"properties":{"STOP_ID":"vic:rail:UFD","STOP_NAME":"Upfield Railway Station","MODE":"METRO TRAIN"}},{"type":"Point","coordinates":[145.30753019,-37.8926717],"properties":{"STOP_ID":"vic:rail:UFG","STOP_NAME":"Upper Ferntree Gully Railway Station","MODE":"METRO TRAIN"}},{"type":"Point","coordinates":[145.10034527,-37.82315506],"properties":{"STOP_ID":"vic:rail:UNN","STOP_NAME":"Union Railway Station ","MODE":"METRO TRAIN"}},{"type":"Point","coordinates":[145.33133336,-37.90369097],"properties":{"STOP_ID":"vic:rail:UPW","STOP_NAME":"Upwey Railway Station","MODE":"METRO TRAIN"}},{"type":"Point","coordinates":[144.99445143,-37.79915782],"properties":{"STOP_ID":"vic:rail:VPK","STOP_NAME":"Victoria Park Railway Station","MODE":"METRO TRAIN"}},{"type":"Point","coordinates":[145.08379338,-37.71095798],"properties":{"STOP_ID":"vic:rail:WAT","STOP_NAME":"Watsonia Railway Station","MODE":"METRO TRAIN"}},{"type":"Point","coordinates":[144.89448368,-37.86398189],"properties":{"STOP_ID":"vic:rail:WBH","STOP_NAME":"Williamstown Beach Railway Station","MODE":"METRO TRAIN"}},{"type":"Point","coordinates":[144.66111801,-37.89937805],"properties":{"STOP_ID":"vic:rail:WER","STOP_NAME":"Werribee Railway Station","MODE":"METRO TRAIN"}},{"type":"Point","coordinates":[144.88398479,-37.80180266],"properties":{"STOP_ID":"vic:rail:WFY","STOP_NAME":"West Footscray Railway Station","MODE":"METRO TRAIN"}},{"type":"Point","coordinates":[144.77418099,-37.70111071],"properties":{"STOP_ID":"vic:rail:WGS","STOP_NAME":"Watergardens Railway Station","MODE":"METRO TRAIN"}},{"type":"Point","coordinates":[144.90532331,-37.86775292],"properties":{"STOP_ID":"vic:rail:WIL","STOP_NAME":"Williamstown Railway Station","MODE":"METRO TRAIN"}},{"type":"Point","coordinates":[144.99203517,-37.85605308],"properties":{"STOP_ID":"vic:rail:WIN","STOP_NAME":"Windsor Railway Station","MODE":"METRO TRAIN"}},{"type":"Point","coordinates":[144.74744472,-37.86986533],"properties":{"STOP_ID":"vic:rail:WLD","STOP_NAME":"Williams Landing Railway Station","MODE":"METRO TRAIN"}},{"type":"Point","coordinates":[144.99142278,-37.81494896],"properties":{"STOP_ID":"vic:rail:WRM","STOP_NAME":"West Richmond Railway Station","MODE":"METRO TRAIN"}},{"type":"Point","coordinates":[145.07029756,-37.83571565],"properties":{"STOP_ID":"vic:rail:WSN","STOP_NAME":"Willison Railway Station","MODE":"METRO TRAIN"}},{"type":"Point","coordinates":[144.99923319,-37.7806207],"properties":{"STOP_ID":"vic:rail:WTG","STOP_NAME":"Westgarth Railway Station","MODE":"METRO TRAIN"}},{"type":"Point","coordinates":[145.13881033,-37.93847284],"properties":{"STOP_ID":"vic:rail:WTL","STOP_NAME":"Westall Railway Station","MODE":"METRO TRAIN"}},{"type":"Point","coordinates":[144.81349356,-37.86516348],"properties":{"STOP_ID":"vic:rail:WTO","STOP_NAME":"Westona Railway Station","MODE":"METRO TRAIN"}},{"type":"Point","coordinates":[145.18161453,-37.66396792],"properties":{"STOP_ID":"vic:rail:WTT","STOP_NAME":"Wattle Glen Railway Station","MODE":"METRO TRAIN"}},{"type":"Point","coordinates":[145.19160028,-37.97825454],"properties":{"STOP_ID":"vic:rail:YMN","STOP_NAME":"Yarraman Railway Station","MODE":"METRO TRAIN"}},{"type":"Point","coordinates":[144.88993371,-37.81585044],"properties":{"STOP_ID":"vic:rail:YVE","STOP_NAME":"Yarraville Railway Station","MODE":"METRO TRAIN"}},{"type":"Point","coordinates":[144.80218807,-37.78306529],"properties":{"STOP_ID":"vic:rail:ARR","STOP_NAME":"Ardeer Railway Station","MODE":"REGIONAL TRAIN"}},{"type":"Point","coordinates":[144.43678516,-37.68757821],"properties":{"STOP_ID":"vic:rail:BAH","STOP_NAME":"Bacchus Marsh Railway Station","MODE":"REGIONAL TRAIN"}},{"type":"Point","coordinates":[144.97020358,-37.54202766],"properties":{"STOP_ID":"vic:rail:DBK","STOP_NAME":"Donnybrook Railway Station","MODE":"REGIONAL TRAIN"}},{"type":"Point","coordinates":[144.77108058,-37.77728102],"properties":{"STOP_ID":"vic:rail:DEK","STOP_NAME":"Deer Park Railway Station","MODE":"REGIONAL TRAIN"}},{"type":"Point","coordinates":[144.41440429,-38.02242764],"properties":{"STOP_ID":"vic:rail:LRA","STOP_NAME":"Lara Railway Station","MODE":"REGIONAL TRAIN"}},{"type":"Point","coordinates":[144.49848487,-37.96292909],"properties":{"STOP_ID":"vic:rail:LRR","STOP_NAME":"Little River Railway Station","MODE":"REGIONAL TRAIN"}},{"type":"Point","coordinates":[144.57209861,-37.70347382],"properties":{"STOP_ID":"vic:rail:MEL","STOP_NAME":"Melton Railway Station","MODE":"REGIONAL TRAIN"}},{"type":"Point","coordinates":[145.57166573,-38.08159155],"properties":{"STOP_ID":"vic:rail:NNG","STOP_NAME":"Nar Nar Goon Railway Station","MODE":"REGIONAL TRAIN"}},{"type":"Point","coordinates":[144.65063148,-37.72926127],"properties":{"STOP_ID":"vic:rail:RBK","STOP_NAME":"Rockbank Railway Station ","MODE":"REGIONAL TRAIN"}},{"type":"Point","coordinates":[144.73573715,-37.76612649],"properties":{"STOP_ID":"vic:rail:RVH","STOP_NAME":"Caroline Springs Railway Station","MODE":"REGIONAL TRAIN"}},{"type":"Point","coordinates":[144.60410782,-37.71254554],"properties":{"STOP_ID":"vic:rail:TLN","STOP_NAME":"Cobblebank Railway Station","MODE":"REGIONAL TRAIN"}},{"type":"Point","coordinates":[144.69448757,-37.83215468],"properties":{"STOP_ID":"vic:rail:TNT","STOP_NAME":"Tarneit Railway Station","MODE":"REGIONAL TRAIN"}},{"type":"Point","coordinates":[145.6282343,-38.08499626],"properties":{"STOP_ID":"vic:rail:TYN","STOP_NAME":"Tynong Railway Station","MODE":"REGIONAL TRAIN"}},{"type":"Point","coordinates":[144.60835702,-37.87252742],"properties":{"STOP_ID":"vic:rail:WVL","STOP_NAME":"Wyndham Vale Railway Station","MODE":"REGIONAL TRAIN"}}]}}}