{"type":"Topology","arcs":[[[1569,15927],[105,-10],[272,-41],[-10,-17],[68,-190],[75,-66],[84,-43],[50,3],[52,-55],[-31,-29],[38,-59],[0,-36],[56,-23],[41,-41],[97,7],[40,-64],[-5,57],[28,59],[49,41],[79,-10],[11,63],[-23,66],[34,91],[-6,62],[15,55],[-47,21],[25,44],[37,318],[27,124],[302,-46],[-6,-44],[161,-23],[63,7],[-3,-17],[135,-18],[4,-17],[73,9],[-33,-237],[566,-82],[9,-28],[47,8],[50,359],[224,-26],[20,-40],[43,48],[47,-32],[183,-27],[38,-18],[-31,-45],[-79,12],[-17,-118],[94,-14],[5,-52],[-117,-73],[-60,-101],[-24,-20],[-38,-156],[-33,-96],[-34,14],[-25,-48],[-23,-93],[11,-33],[-22,-56],[-16,12],[-31,-82],[36,-44],[88,-33],[64,-60],[126,-70],[54,-14],[29,-48],[41,-30],[93,-19],[-21,-147],[7,-63],[165,-20],[-25,-176],[15,-61],[-23,-58],[-200,30],[-26,-182],[30,-64],[-21,-121],[237,-64],[10,-56],[52,-42],[36,62],[110,4],[47,94],[42,21],[6,59],[45,-20]],[[5230,13959],[-17,-61],[-65,-469],[65,-84],[-4,-111],[-39,-66],[18,-59],[-48,-45],[8,-33]],[[5148,13031],[2,-22],[-40,-45],[19,-26],[-43,-47],[-4,-38],[24,-43],[-26,-147],[-97,24],[-6,-42],[-72,10],[-3,-26],[51,-8],[-41,-36],[13,-32],[-7,-58],[-160,24],[2,13],[-80,11],[72,-108],[-13,-76],[47,-56],[3,-26],[-256,35],[-75,28],[-68,106],[-13,-39],[17,-31],[-7,-53],[-28,-28],[27,-30],[70,-17],[47,-37],[-3,-44],[-55,-32],[51,-93],[63,-45],[31,-6],[-15,-101],[147,-67],[-11,-99],[45,-6],[-10,-68],[59,3],[-13,-88],[61,39],[22,37],[115,20],[81,62],[55,-13],[15,35],[28,-5],[13,114],[122,-8],[20,-30],[-12,-63],[32,-10],[-81,-609]],[[5263,11134],[-68,-469],[-112,16],[-31,-218]],[[5052,10463],[-67,76],[-19,-28],[-15,50],[-40,46],[9,100],[-32,55],[16,59],[-36,27],[8,55],[-52,3],[-28,35],[-26,-83],[-233,35],[-45,-261],[-51,10],[-18,-26],[-55,13],[-22,-22],[-105,74],[-61,4],[-53,63],[-16,-1],[11,76],[-193,29],[-10,35],[-98,16],[-6,-24],[-155,19]],[[3660,10898],[-26,26],[-582,76],[-21,-44],[-389,59],[-36,-295],[-30,49],[-212,29],[-167,-1],[-63,-40],[-134,2],[-2,29],[-116,2],[0,66],[-60,1],[-59,26],[-6,71],[-35,27],[17,24],[-61,76],[-45,32],[-7,-66],[-37,36],[-13,47],[-45,31],[28,37],[34,-14],[31,57],[-7,132],[30,-14],[5,32],[-45,41],[5,80],[-25,11],[1,63],[35,3],[-74,80],[-41,20],[2,29],[-39,-1],[-17,42],[-6,100],[-38,13],[-63,-19],[22,52],[-30,-8],[24,41],[14,102],[30,-15],[186,-30],[4,15],[94,-27],[17,143],[15,-16],[100,28],[56,75],[7,45],[68,5],[-28,15],[2,48],[-83,3],[-15,16],[-86,13],[-3,68],[-45,-4],[-66,42],[-20,72],[14,90],[96,-14],[8,59],[60,-8],[-21,27],[48,38],[37,2],[56,-36],[14,30],[-5,82],[-20,13],[-2,84],[59,19],[-2,79],[-84,111],[41,5],[-32,142],[64,96],[-45,7],[16,124],[-55,8],[8,51],[-58,9],[4,30],[-36,29],[-411,48],[-13,-59],[32,-4],[-27,-52],[-137,21],[17,123],[-112,17],[9,62],[-66,-53],[-347,55],[31,-80],[35,-28],[-41,-25],[-40,21],[-64,-447],[-76,42],[-146,59],[-14,-50],[-96,16],[6,21],[-27,93],[-31,27],[52,354],[-231,37],[-3,61],[29,182],[-104,27],[19,172],[28,-4],[18,114],[58,-10],[17,106],[-29,16],[19,119],[59,-9],[36,234],[-171,28],[9,61],[112,-19],[47,295],[118,-20],[53,355],[-198,30],[65,7],[38,41],[32,-27],[29,14],[110,3],[12,40],[52,34],[-10,27],[27,32],[17,-46],[18,39],[73,-53],[57,-79],[35,-18],[46,40],[339,-57],[11,75],[82,-11],[12,-45],[135,-20],[11,9],[43,311],[50,76],[90,-14]],[[5052,10463],[21,-29],[46,0],[105,-154],[53,-17],[7,-86],[22,-29],[1,-50],[-40,-11],[-7,-95],[23,7],[-12,-50],[-21,-1],[-9,-52],[30,-39],[-16,-20],[22,-68],[89,-102],[12,-97],[78,-1],[57,-52],[29,5],[11,57],[49,17],[87,-8],[57,-101],[40,0],[47,-30],[31,-47],[-8,-29],[32,-30],[90,-23]],[[5978,9328],[-63,-53],[-40,-78],[-49,-18],[-54,-118],[-47,13],[-102,-56],[-104,-13],[-23,-16],[-17,-102],[31,3],[-36,-131],[1,-68],[-39,-66],[-43,33],[-69,73],[-66,9],[-35,-51],[-46,55],[-42,-12],[-78,-110],[-5,40],[-197,21],[-37,23],[-56,61],[-57,-26],[-35,-57],[-10,-107],[-130,-76],[35,-25],[-38,-37],[-27,-194],[78,-65],[34,-2],[66,28],[27,-44],[37,-8],[50,-47],[89,3],[16,83],[-5,36],[20,76],[29,35],[40,-105],[63,-80],[61,-51],[98,-57],[79,-13],[107,28]],[[5389,8062],[-19,-142],[53,-8],[-29,-210],[-22,-54],[-44,7],[-7,-45],[-131,59],[-67,-16],[-19,-59],[-38,-74],[-13,29],[-51,-4],[-13,-47],[-36,-26],[-36,27],[6,74],[-36,14],[-30,45],[-45,-7],[-44,-41],[-146,9],[-5,-39],[-116,17],[-35,-232],[-343,50]],[[4123,7389],[-344,53],[71,501],[12,143],[46,54],[-8,22],[28,139],[-25,9],[44,304],[28,-5],[10,44],[23,-10],[52,79],[-58,91],[-25,20],[-28,-23],[-59,29],[-5,37],[28,40],[-3,96],[-37,26],[13,40],[-44,30],[-40,160],[-27,31],[20,37],[-6,44],[22,2],[6,88],[-46,29],[10,78],[-33,58],[-7,107],[13,28],[-22,44],[19,16],[-216,33],[27,178],[34,45],[8,75],[65,33],[27,55],[79,113],[49,22],[-75,31],[-25,73],[8,102],[-15,99],[-16,26],[-65,23],[-50,41],[43,48],[31,71]],[[1925,4680],[-443,59],[-320,45],[11,75],[73,-12],[33,28],[13,53],[42,33],[-1,137],[22,30],[-65,10],[13,88],[-76,11],[53,361],[190,-7],[399,51],[-1,17],[41,267],[-17,3],[21,88],[-10,55],[-57,14],[15,109],[87,-13],[38,-30],[19,23],[8,63],[93,-2],[60,-39],[118,-40],[-15,22],[12,75],[-44,240],[9,65],[230,-35],[39,278],[116,-16],[-4,-30],[156,-23],[-14,-102],[53,41],[92,25],[26,-14],[6,57],[122,-51],[80,71],[61,5],[11,-43],[-15,-48],[56,-27],[41,-53],[8,50],[114,-19],[19,132],[58,-8],[9,64],[58,-9],[17,117],[458,-69],[80,537]],[[5389,8062],[48,-7],[95,20],[42,-7],[142,40],[36,-3],[67,43],[112,116],[66,57],[51,29],[148,108],[27,36],[31,-1],[90,-41],[98,7],[171,-67],[45,-61],[41,-19],[52,-104],[31,-25],[-15,-27],[-6,-111],[21,-82],[-45,-123],[-38,-175],[-36,-78],[-42,21],[36,30],[24,88],[-34,22],[-14,39],[-26,-3],[-87,-54],[-25,-39],[-49,-25],[-25,-59],[-159,-203],[-47,-77],[-33,-32],[81,-84],[-29,-22],[71,-2],[89,46],[56,11],[35,-24],[-52,-20],[-27,-50],[-80,17],[-107,-10],[-72,-33],[-24,-68],[-1,-51],[-42,9],[-195,91],[-173,53],[-148,13],[-85,-18],[-57,-40],[-27,-41],[-24,7],[32,-63],[-91,18],[-62,2],[-251,54],[-42,-2],[-70,-42],[-28,-33],[-52,-14],[-44,-36],[-50,-8],[-86,-37],[9,-26],[-47,-44],[-109,-49],[-78,-23],[-71,-44],[-22,-98],[8,-21],[-46,-16],[-5,-27],[-52,-2],[-78,-49],[-9,-33],[-47,-38],[-25,-58],[-85,-59],[-40,-44],[-55,-17],[-32,-46],[16,-56],[-132,-19],[-113,-32],[-122,-60],[-15,-43],[-72,-26],[-12,-77],[26,-12],[-211,-12],[-72,-19],[-46,-26],[-41,-85],[-29,-18],[-20,-79],[-40,-22],[-38,-66],[-70,5],[-165,-5],[-116,-21],[-78,-33],[-46,-96],[-71,-42],[-42,-46],[-62,-97],[-72,-74],[-64,-102],[-16,-83],[61,-47],[-32,-55],[-39,-4],[8,-42],[-23,-44],[-40,-6],[-41,-69],[-74,-9],[-15,-22]],[[6455,7298],[-23,9],[16,37],[73,97],[16,-3],[-11,-100],[67,32],[-1,30],[68,11],[-16,-54],[-102,-35],[-66,-39],[-21,15]],[[11812,6885],[133,-22],[25,146],[77,-39],[34,-47],[37,-21],[92,-89],[5,-42],[55,-75],[76,-19],[22,143],[-13,-4],[33,238],[59,-23],[105,49],[-2,-19],[264,-38],[8,60],[59,-7],[-8,-57],[57,-8],[6,44],[207,-30],[24,166],[-22,2],[15,109]],[[13160,7302],[115,-15],[10,-49],[105,-27],[6,42],[173,-26],[7,-40],[62,-14],[38,-71],[109,-18],[-16,-118],[40,-12],[-7,-58],[72,-11],[-20,-31],[-12,-97],[116,-16],[3,21],[84,-13],[8,59],[46,-5],[-5,-41],[112,-17],[-1,54],[-25,17],[103,0],[33,-9],[-6,-48],[43,-56],[96,-13],[15,118],[15,30],[67,5],[7,58],[150,-20],[18,121],[95,-14],[-9,-72],[30,-59],[31,23],[24,-33],[-15,-39],[-46,5],[-3,-53],[-83,10],[-8,-55],[129,-17],[29,-23],[79,25],[63,-18],[131,69],[22,-10],[-26,-91],[32,-56],[50,29],[-14,23],[58,34],[83,6],[38,-31],[-3,-31],[35,-26],[48,28],[100,-173],[160,99],[78,-11],[11,70],[170,-27],[22,137],[57,-9],[13,89],[81,-35],[84,-3],[56,112],[183,-28],[50,43],[34,-22],[68,36],[70,-5],[-28,-176],[-136,-15],[-33,-226],[-89,16],[-14,24],[-49,-20],[-23,-45],[-48,-13],[-30,-47],[-55,9],[-79,-36],[95,-40],[73,-5],[22,-26],[-41,-12],[1,-35],[-36,-231],[26,-4],[-14,-89],[-26,2],[-12,-68],[-98,16],[10,11],[-78,13],[-9,-61],[-28,-26],[51,-54],[48,16],[53,-21],[-18,-42],[23,-40],[61,-17],[7,-21],[47,11],[10,56],[201,-33],[34,108],[44,-44],[2,-33],[53,-70],[10,-43],[-40,-114],[15,-77],[40,-13],[1,-53],[-22,-47],[-36,-13],[7,-64],[-17,-21],[5,-54],[37,-35],[32,7],[56,48],[58,10],[86,-93],[-39,-31],[-22,-62],[-32,-9],[12,-38],[-20,-22],[29,-22],[9,-63],[33,-23],[50,2],[40,-50],[51,3],[26,-35],[71,5],[45,-23],[-21,-21],[37,-21],[-18,-59],[53,-27],[16,24],[47,-19],[4,-23],[48,-29],[69,12],[32,-12],[-6,-33],[116,-19],[3,19],[73,-11],[4,23],[52,-8],[7,43],[84,-14],[-10,-72],[92,-16],[11,-37],[93,-15],[3,20],[119,-22],[-2,-11],[86,-15],[17,-31],[-50,-327],[35,-5],[-28,-195],[26,-34],[-44,-17],[-99,25],[9,78],[-44,-44],[-16,61],[-17,-39],[8,-97],[-40,-12],[-101,-3],[-49,-29],[-7,18],[-70,-2],[-16,29],[-66,17],[8,-44],[-131,-51],[-73,-96],[30,-26],[-36,-9],[-85,21],[-46,-2],[-6,101],[-30,63],[6,63],[-16,30],[24,15],[-44,42],[-25,-24],[-60,28],[-18,36],[-44,26],[-42,-28],[-40,17],[3,-48],[-40,-6],[-8,-51],[52,-27],[-38,-3],[-25,32],[-119,-38],[-40,0],[-72,-28],[-154,59],[-6,-25],[-51,-9],[-28,19],[-8,-62],[-53,13],[-10,63],[-92,-14],[21,-42],[-119,-18],[107,-19],[-19,-49],[-53,-37],[-57,-2],[-39,-25],[44,-29],[-35,-24],[-28,32],[-47,-83],[56,-53],[61,36],[-16,-47],[16,-29],[-33,-2],[-70,32],[-5,44],[-29,-22],[-21,-97],[41,2],[32,-88],[25,-22],[11,-60],[28,-29],[70,-32],[26,-49],[31,-185],[28,-60],[49,-24],[73,13],[88,34],[23,-21],[-13,-98],[-18,-57],[24,-126],[14,-142],[103,-54],[38,-77],[-33,-86],[-2,-61],[30,-78],[65,-19],[86,9],[48,18],[44,69],[34,115],[66,39],[37,60],[61,17],[41,50],[65,-3],[55,35],[30,42],[22,-11],[80,16],[27,-25],[24,36],[26,125],[4,120],[-6,119],[43,19],[-1,25],[51,19],[17,85],[-13,37],[47,24],[30,-22],[73,-13],[53,6],[26,-61],[32,-8],[7,-74],[-38,-149],[-13,-106],[4,-46],[28,-46],[-44,-148],[-7,-69],[11,-67],[25,-32],[63,-7],[-17,-76],[36,-12],[5,-106],[12,-35],[-40,-11],[-40,-43],[-15,7],[-75,-118],[-71,-137],[-41,-101],[-48,-151],[59,-153],[-10,-63],[-75,-22],[-2,-58],[24,-39],[43,-13],[11,34],[49,-17],[57,3],[44,-27],[12,-29],[-41,-23],[46,-43],[-52,0],[-16,-18],[21,-40],[26,19],[33,-55],[29,20],[-21,-90],[29,19],[27,-65],[-20,-50],[-99,41],[-57,62],[-57,-33],[-13,-46],[-84,-15],[-31,-79],[-3,-67],[75,-50],[-14,-141],[-54,-25],[33,-31],[-47,0],[-15,-70],[29,-56],[-35,33],[-39,1],[-49,-41],[-75,-29],[-38,6],[-8,69],[-54,-68],[-70,-3],[-112,73],[-27,-4],[-9,93],[-61,60],[-2,38],[-61,63],[-20,53],[1,76],[92,-7],[40,72],[-1,81],[-48,11],[-15,58],[-21,14],[-68,-30],[51,99],[-76,70],[-54,-58],[-11,26],[20,67],[-26,38],[-71,8],[-8,-33],[-41,13],[46,43],[-10,67],[-50,38],[-48,85],[-58,5],[-13,-26],[-28,37],[-58,-15],[1,18],[82,27],[32,-6],[22,81],[-22,38],[6,33],[-100,175],[-34,99],[-82,160],[-87,128],[-128,160],[-97,109],[-75,54],[-153,133],[-155,120],[-80,49],[-157,74],[-139,37],[-80,6],[-112,-20],[-149,-104],[-70,-163],[-4,-92],[27,-28],[-2,-45],[32,-89],[-147,-103],[-24,-36],[-88,-10],[-12,-19],[-42,20],[-66,7],[-58,-17],[-19,-36],[-75,-61],[-57,96],[-6,47],[31,99],[-10,60],[-93,234],[-37,162],[-46,75],[-51,163],[-46,115],[-157,276],[-84,134],[-250,331],[-174,170],[-56,44],[-163,107],[-8,24],[-98,-3],[-34,-18],[-86,-12],[-46,-25],[-46,-86],[-59,-46],[9,-20],[-49,3],[-71,-59],[-91,45],[-35,-17],[-35,13],[-109,-29],[-19,-18],[-69,67],[-46,18],[-62,79],[-74,24],[-41,35],[-16,55],[-96,213],[-32,56],[-90,126],[-77,94],[-54,87],[-57,75],[-66,68],[-56,33],[-52,-4],[-51,29],[-45,-2],[-33,38],[-134,59],[-85,-15],[-107,22],[-132,-5],[-12,75],[-39,23],[0,28],[159,9],[57,26],[125,23],[40,32],[48,121],[14,8],[-8,93],[-32,56],[-65,31],[49,45],[24,72],[-2,116],[27,30],[-3,81],[-55,123],[-47,46],[11,10],[74,-32],[64,21],[87,-36],[27,27],[143,16],[50,-63],[67,-16],[84,8],[32,14],[103,131],[46,91],[42,121],[23,139],[-11,64],[-35,57],[-39,26],[-95,15],[-53,-27],[7,147],[-6,15],[32,90]],[[16293,356],[27,20],[-9,-48],[-18,28]],[[10857,5976],[-16,22],[18,41],[20,-51],[-22,-12]],[[16313,394],[-5,70],[29,-59],[-24,-11]],[[18979,1910],[22,-26],[-27,-13],[5,39]],[[17058,157],[60,7],[-39,-22],[-21,15]],[[18049,2006],[0,-19],[-51,-7],[42,41],[9,-15]],[[16770,7],[-23,45],[18,15],[30,-67],[-25,7]],[[16226,1523],[2,27],[60,-15],[-57,-30],[-5,18]],[[16323,1125],[10,21],[35,-64],[-61,16],[16,27]],[[10664,5372],[34,-63],[-65,17],[31,46]],[[16848,105],[-34,28],[-22,55],[68,-25],[33,-28],[-28,-45],[-17,15]],[[16275,564],[-33,17],[-32,111],[33,1],[8,-61],[22,-41],[65,-29],[-30,-73],[-33,75]],[[9482,5232],[-3,-29],[-44,-1],[-57,-28],[-105,-1],[77,107],[26,-26],[70,22],[24,28],[4,80],[48,136],[61,68],[177,86],[41,45],[89,17],[95,-7],[42,20],[255,-32],[81,9],[55,-11],[-117,-30],[-37,-45],[67,39],[10,-26],[95,7],[52,-12],[3,-46],[-61,-26],[-20,-58],[-41,-36],[1,-53],[28,-19],[63,31],[-9,-38],[18,-35],[-61,-44],[4,-58],[137,-20],[83,37],[38,-37],[117,8],[34,-36],[-7,-33],[-76,-19],[-35,-41],[-17,-104],[91,-103],[42,-4],[9,-26],[-36,-51],[15,-51],[-40,-10],[-25,35],[-35,7],[-14,34],[23,40],[-45,77],[-59,68],[-132,131],[-135,71],[-80,13],[-11,25],[-59,-18],[-49,32],[-91,-22],[-35,-24],[-11,-48],[-77,-116],[-31,45],[-46,-7],[-13,45],[-39,24],[-18,-16],[-79,42],[-68,-7],[-14,35],[-42,-31],[-13,27],[-42,8],[-46,-14]],[[10338,6161],[-49,-4],[16,-69],[-67,-29],[1,53],[41,85],[-13,79],[19,52],[-24,81],[-2,65],[30,89],[31,171],[-6,23],[38,117],[-11,68],[20,45],[3,84],[43,13],[108,-31],[33,-33],[72,-24],[43,-88],[61,-52],[169,-30],[66,9],[66,39],[97,29],[91,-29],[98,3],[49,12],[64,-39],[39,-67],[5,-49],[42,-54],[79,-56],[29,-1],[14,-33],[70,-80],[-147,-79],[-21,-28],[-100,3],[-66,-19],[-110,-12],[-39,-15],[-98,7],[-51,-35],[-64,-63],[-19,-45],[18,-65],[-46,-21],[6,-62],[-44,-26],[-49,50],[-45,-15],[-60,-69],[-12,-47],[-23,1],[-39,44],[-56,21],[-27,-23],[-23,28],[-37,-13],[-9,35],[-46,53],[-68,28],[-90,18]],[[8293,11158],[-135,21],[-10,-19]],[[8148,11160],[-9,55],[17,80],[-34,18],[13,44],[-52,16],[16,49],[28,7]],[[8127,11429],[-33,75]],[[8094,11504],[2,13],[127,-19],[2,28],[210,-28]],[[8435,11498],[-19,-55],[6,-60]],[[8422,11383],[-9,-30],[39,-101],[8,-64]],[[8460,11188],[-48,7],[-7,-54],[-112,17]],[[8422,11383],[318,-44]],[[8740,11339],[-21,-68],[15,-7],[35,-113]],[[8769,11151],[-13,-11],[-134,-31],[-69,8],[-24,-20],[-36,24],[-33,67]],[[8148,11160],[20,-79],[-13,-11],[-106,12],[-49,65],[-34,-25],[-34,-58]],[[7932,11064],[9,35],[-44,48],[-8,50],[38,29],[-2,34],[-47,-3],[-33,32]],[[7845,11289],[1,53],[24,168],[73,-7],[23,-48],[161,-26]],[[7950,10796],[5,113],[20,57],[42,34],[-76,46],[-9,18]],[[8293,11158],[-9,-95],[43,-27],[63,1],[-16,-120],[114,-15],[-21,-161]],[[8467,10741],[-23,-170]],[[8444,10571],[-23,4],[-32,113],[-26,51],[-35,-13],[-26,28],[-135,19],[-15,21],[-81,25],[-121,-23]],[[7905,10648],[-8,69],[53,79]],[[8444,10571],[-6,-40],[171,-37]],[[8609,10494],[-9,-60],[-57,10],[-19,-141]],[[8524,10303],[-30,5],[-10,-69],[-36,6]],[[8448,10245],[-54,65],[-19,85],[15,18],[-37,45],[3,31],[-75,64],[-153,87],[-97,20],[-32,-19],[-6,-60],[-42,75],[-2,-61],[-44,53]],[[8467,10741],[22,-29],[114,-2],[21,24],[73,-32]],[[8697,10702],[51,-23]],[[8748,10679],[-31,-234]],[[8717,10445],[-108,49]],[[8769,11151],[26,-43]],[[8795,11108],[2,-45],[-53,-1],[-22,23],[-97,11],[41,-53],[-36,0],[44,-50],[1,-35],[-30,-1],[-34,31],[-24,-15],[-26,42],[-19,-19],[49,-42],[-42,-32],[40,0],[14,-26],[39,-2],[-9,-47],[11,-64],[33,-6],[44,-47],[-24,-28]],[[9213,11044],[-21,-45],[9,-44],[-20,-98],[-41,-308]],[[9140,10549],[-19,-149]],[[9121,10400],[-77,-11],[-31,-22],[-37,13],[-47,76],[7,43],[-18,39],[-122,74],[-10,55],[-38,12]],[[8795,11108],[24,32],[57,-34],[43,35],[41,-29],[4,23]],[[8964,11135],[66,32],[35,-26],[78,1],[70,-98]],[[9596,10961],[-44,4],[-100,36],[-83,17],[-47,-27],[-91,32],[-18,21]],[[8964,11135],[24,79],[36,-16],[-31,50],[27,-4],[20,40],[-29,44],[31,-10],[19,56],[53,-24],[47,42],[55,-47],[36,-3],[56,29],[-12,57],[34,36],[49,-21],[16,15]],[[9395,11458],[15,22],[75,-1],[34,36],[44,-31],[13,27],[76,-8],[7,-24]],[[9659,11479],[-14,-94],[30,-12],[0,-42],[22,-108],[-4,-35],[-43,6],[-13,-104],[-20,3],[-21,-132]],[[9596,10961],[11,-4]],[[9607,10957],[-35,-152],[24,-50],[-15,-49],[-33,6],[-20,-101],[47,-9],[-9,-59],[40,-6],[-1,-58]],[[9605,10479],[-465,70]],[[8524,10303],[25,-38],[33,-91],[124,-19],[-22,-149],[75,-100]],[[8759,9906],[25,-85],[106,-196],[-23,-154]],[[8867,9471],[-55,-35],[-29,-43],[-48,15],[-18,43],[-62,60],[-53,99],[5,68],[-48,73],[-60,66],[-5,32],[43,-14],[-8,31],[-77,94],[11,41],[-16,63],[-9,99],[10,82]],[[8717,10445],[78,-71],[30,-8],[53,-59],[118,-13],[101,-65]],[[9097,10229],[-36,-251]],[[9061,9978],[-19,-119]],[[9042,9859],[-283,47]],[[9524,8819],[-10,-67],[-31,5],[-7,-67],[-156,10],[-6,-23]],[[9314,8677],[-48,220],[-85,222],[-47,90],[-128,164],[-76,67],[-63,31]],[[9042,9859],[90,-26],[28,-30],[30,-86],[58,-9],[-11,-72],[7,-48],[34,-5],[-6,-37],[17,-83],[162,-25],[-34,-226],[-36,-53],[27,-57],[78,-282],[38,-1]],[[9121,10400],[-24,-171]],[[8740,11339],[1,41],[28,30],[-25,74],[51,46],[-10,38],[139,-17],[5,42],[37,-5],[-17,38],[29,37],[33,-4],[2,59],[-65,-5],[-83,8],[43,68]],[[8908,11789],[11,39],[52,74],[68,-9]],[[9039,11893],[58,-32],[26,-33],[16,17],[95,17],[42,25],[86,15],[83,28],[-21,-151],[-51,7],[-26,-16],[35,-89],[26,-37],[-18,-114],[5,-72]],[[8435,11498],[15,118],[-42,0],[12,57],[-21,32],[34,60],[-23,68],[-43,29]],[[8367,11862],[247,-31],[294,-42]],[[10211,14135],[55,1],[33,-63],[84,-19],[-6,30],[34,34],[110,21],[20,-41],[87,1],[0,-126],[319,2],[0,-39],[109,0],[0,-78],[77,0],[-12,-55],[-40,-48],[-108,2],[24,-81],[39,4],[128,-15],[6,50],[441,4],[37,193],[140,1],[-25,-160],[358,-27],[-11,-46],[-20,0],[-24,-393],[10,-76],[-12,-54],[35,-31],[53,-85],[-28,-30],[-35,14],[29,-70],[43,-36],[24,-89]],[[12185,12830],[-41,-64],[-2,-58],[-67,-56],[-25,20],[-72,133],[-37,15],[-23,79],[-38,47],[-22,2],[-18,-56],[-108,62],[-34,0],[39,-63],[-75,1],[0,27],[-93,1],[0,44],[-49,0],[-27,-24],[-13,63],[-188,32],[17,101],[-49,21],[-42,-34],[-47,28],[1,40],[-86,0],[-17,-79],[-53,-37],[-27,10],[-20,-30],[-66,23],[-60,-37],[-12,-143],[-54,-297],[5,-48],[-25,-79],[33,-27],[3,-72],[-15,-21],[-13,-112],[-38,-38],[-13,-57],[-65,-54],[-32,-77],[13,-65],[20,-17],[-29,-81],[-28,25],[-59,-24],[10,-44],[-24,-18],[36,-57],[-43,-2],[-20,-75],[-52,-3],[-19,31],[-36,4]],[[10386,11690],[-8,79],[-33,-6],[-27,-43],[27,-51],[-21,-32],[-15,40],[-56,-13],[21,41],[-22,54],[-39,-37],[-34,3],[-42,-74],[-33,-30],[-32,15],[-16,-49],[-28,41],[1,-58],[34,-7],[-3,-66],[-36,38],[-56,-13],[18,-46],[-61,21],[-83,-44],[-32,15],[83,47],[-19,34],[-65,-5],[-19,-25],[-6,-64],[-36,25],[12,52],[-79,16],[-22,-69]],[[9039,11893],[129,-19],[25,53],[-121,22],[0,81],[50,25],[-11,31],[67,6],[31,52],[-18,45],[28,14],[-27,38],[27,32],[37,99],[52,8],[6,37],[32,-5],[5,30],[44,-6],[55,402],[31,40],[98,59],[24,54],[-13,20],[53,47],[29,53],[161,-22],[8,59],[-80,12],[17,54],[88,-12],[6,47],[105,-16],[-11,44],[49,-11],[6,58],[-57,11],[30,47],[28,-5],[34,209],[-118,41],[16,117],[59,91],[4,72],[194,151],[0,77]],[[8367,11862],[3,110],[32,12],[-23,36],[13,30],[-24,68],[29,12],[-3,63],[-44,56],[-24,58],[-44,12],[3,48],[-39,44],[28,17],[-20,59],[-45,54],[35,1],[-1,57],[22,68],[18,2],[-13,69],[43,29],[11,57],[-12,39],[14,54],[-78,103],[98,105],[25,-4],[22,62],[-21,14],[28,98],[-169,19],[-379,60],[-41,4]],[[7811,13378],[-2,37],[31,47],[44,-3],[-22,53],[12,73],[33,-6],[7,72],[36,40],[-43,-7],[-44,38],[38,14],[0,68],[23,161],[-37,57],[42,0],[-1,114],[32,68],[28,159],[16,7],[44,141],[-39,7],[18,117]],[[8027,14635],[20,124],[18,-36],[53,13],[310,-47],[3,26],[59,-25],[1,30],[70,55],[66,0],[32,19],[75,-11],[9,39],[96,55],[38,122],[16,171],[2,146],[386,4],[-6,-30],[53,-17],[-1,-60],[-25,0],[27,-141],[641,-3],[-4,-265],[48,0],[0,-100],[16,-39],[73,-36],[28,-108],[34,-77],[47,-9],[-1,-300]],[[7845,11289],[-43,48],[-57,-46],[-15,-39],[23,-20],[-19,-31],[-38,4],[-28,-31],[-52,25],[-7,22]],[[7609,11221],[16,63],[-35,22],[8,41],[-27,65],[-36,-3],[-28,44],[14,51],[-30,-9],[-18,32],[5,63],[-58,30],[0,45],[-64,9],[6,36],[-63,64],[62,22]],[[7361,11796],[82,6],[2,-41],[38,-25],[25,26],[18,-48],[59,-9],[3,46],[24,23],[67,-35],[128,-20],[21,7]],[[7828,11726],[14,-24],[62,13],[78,-103],[47,-18],[39,-38],[26,-52]],[[6733,16021],[27,-57],[0,-204],[-77,-34],[161,-42],[12,-19],[240,-1],[0,45],[50,0],[1,-38],[50,54],[106,-13],[6,21],[55,-15],[-7,-28],[56,-14],[-21,-89],[56,-10],[21,-34],[-42,-294],[18,-98],[129,-48],[63,37],[-41,-298],[45,-5],[11,-29],[41,17],[10,-38],[49,-13],[22,-50],[62,-2],[30,-65],[161,-22]],[[7811,13378],[-35,-16],[-18,26],[-55,-38],[27,-70]],[[7730,13280],[-309,49],[-303,53],[-38,-12],[-29,40],[-17,-17],[-14,55],[-35,-18],[-81,59],[8,-33],[-55,55],[-75,27],[-4,-28],[-44,-2],[9,32],[-55,8],[-54,-28],[11,-27],[-61,-9],[8,-24],[-69,-9],[21,-29],[-50,-20],[-39,17],[-11,-22],[-36,22],[-22,-14],[-72,41],[-44,-36],[-35,-248],[103,-110],[45,-74],[53,-50],[45,-70],[-285,39]],[[6196,12897],[3,24],[-412,61],[-31,-52],[-455,65],[1,11],[-154,25]],[[5230,13959],[36,140],[53,-17],[5,33],[56,5],[29,-48],[75,20],[56,100],[42,32],[49,-9],[11,50],[46,35],[1,53],[101,-22],[16,20],[9,75],[21,40],[30,-5],[14,85],[36,23],[81,-40],[36,12],[26,195],[79,10],[108,-17],[30,202],[61,64],[0,28],[50,0],[15,64],[-104,2],[7,49],[-119,20],[10,77],[-26,3],[30,65],[-55,25],[0,41],[-35,12],[-130,7],[0,54],[19,43],[32,19],[16,-28],[35,23],[35,-12],[61,47],[15,54],[75,60],[74,19],[-140,20],[47,13],[5,36],[89,37],[14,97],[34,-5],[-22,68],[28,-2],[3,55],[67,-3],[34,30],[28,-53],[69,-10],[25,46],[-4,36],[114,-11]],[[7828,11726],[102,106],[104,0],[333,30]],[[7730,13280],[-23,-66],[-41,-33],[-9,24],[-41,-60],[-4,-46],[20,-25],[-44,-125],[-42,26],[-59,-22],[-20,-46],[20,-12],[-74,-66],[13,-58],[-21,-26],[-59,2],[25,-48],[-13,-25],[27,-40],[-47,-32],[60,-14],[-108,-86],[-69,28],[-15,94],[-47,69],[-36,-28],[-54,35],[18,29],[-50,9],[-1,-129],[128,-134],[-26,-65],[15,-3],[-57,-53],[-29,-58],[5,-73],[-14,-8],[20,-61],[-33,-32],[13,-45]],[[7058,12077],[-120,11]],[[6938,12088],[-376,54],[-50,29],[-126,103],[-9,46],[38,62],[-20,85],[-24,36],[15,44],[-10,77],[13,23],[-144,20],[-22,37],[6,60],[-49,91],[16,42]],[[7361,11796],[-15,15],[68,38],[-3,79],[-61,11],[-23,-15],[-5,46],[-52,46],[-46,-31],[-89,-2],[-14,46],[-29,9],[19,42],[-53,-3]],[[9982,9751],[-63,97]],[[9919,9848],[-72,63],[-31,107],[19,68],[-13,59],[24,18],[-4,37],[-31,8],[-69,118],[30,128]],[[9772,10454],[24,44],[50,30],[16,81],[41,63]],[[9903,10672],[96,-15],[117,19],[40,15],[64,-10],[77,12],[8,20],[81,-8],[96,-62],[57,-17]],[[10539,10626],[94,-29],[92,-90],[-26,-30],[-43,50],[-21,-44],[-42,-36],[-142,26],[-7,-24],[36,-43],[-25,-136],[72,-37],[1,-19],[50,-37],[-64,-18],[-56,-33],[121,-111],[-12,-40],[-41,-3],[-9,-56],[-91,2],[-42,-270]],[[10384,9648],[-26,16],[-12,46],[-31,29],[-17,49],[-291,46],[-25,-83]],[[10386,11690],[-6,-121],[-36,-65],[20,-93],[37,-20],[-27,-85],[30,-30]],[[10404,11276],[-114,13],[-67,-38],[-170,15],[-29,-205],[-83,9],[-34,-16],[-24,-168]],[[9883,10886],[-51,50],[-94,0],[-34,35],[-22,-21],[-75,7]],[[9903,10672],[0,47],[-21,0],[1,167]],[[10404,11276],[5,-47],[62,-59],[-9,-102],[20,-70],[-29,-191],[79,27],[12,-110],[-5,-98]],[[9772,10454],[-167,25]],[[12185,12830],[38,32],[47,11],[52,-12],[4,-70],[62,16],[16,24],[78,-78],[33,-55],[51,-14],[82,-101],[6,-59],[28,-70],[51,-36],[53,-16],[387,244],[-39,66],[0,56],[34,87],[25,12],[26,-41],[51,-10],[12,-61],[37,-53],[-23,-47],[30,-112],[22,-23],[-1,-55],[57,-36],[67,-1],[156,-47],[19,-37],[-46,-73],[6,-59],[35,-57],[-3,-64],[-54,52],[-54,-7],[5,-67],[73,-80],[23,-46],[2,-62],[-48,-67],[-58,-29],[-48,-80],[18,-96],[38,41],[27,-2],[24,-45],[50,-45],[61,-83],[60,-35],[41,-80],[57,-21],[203,-353],[-81,-65],[-50,51],[-78,27],[-37,-7],[-5,-46],[-65,-64],[-81,40],[-35,-2],[-34,-53],[-55,-6],[-10,-90],[62,0],[31,-35],[18,-74],[-42,-102],[81,-46],[-46,-54],[-45,30],[-9,-23],[24,-68],[-66,-24],[-14,-22],[-50,-8],[-36,15],[-61,-33],[-26,-44],[-15,-70],[13,-29]],[[13346,10184],[-105,-72],[-65,44],[-47,-11],[-21,31],[-35,116],[-34,12],[-64,-28],[-75,9],[-45,42],[-3,-64],[-42,-39],[-57,-6],[-9,-42],[10,-61],[-80,-7],[-46,-38],[12,-30],[-66,-16],[-106,11],[17,105],[-151,23],[3,25],[-90,14],[-86,-10],[-47,28],[-41,99],[-51,34],[-4,32],[-76,16],[-27,38],[-78,57],[25,-137],[-20,-85],[-19,3],[-92,-103],[-29,-8],[-135,19],[-13,-18],[-57,-4],[-9,-73],[-15,-15],[-34,88],[-45,34],[3,99],[-25,22],[-34,-79],[-31,-31],[19,-44],[-29,-109],[-64,8],[-19,-52],[-16,6],[-20,-57],[-67,-24],[22,-35],[-83,-53],[-74,26],[-34,-34],[19,-85],[-18,-35],[37,-11],[-1,-113],[-23,5],[-32,-35]],[[10924,9566],[-134,30],[-245,40],[-12,-12],[-149,24]],[[13346,10184],[-15,-38],[-44,-46],[-61,-130],[-29,-17],[35,-92],[-29,-38],[-3,-37],[-43,-19],[11,-45],[-35,-25],[54,-105],[48,-29],[50,-52],[47,-79],[-8,-64],[20,-62],[0,-97],[-47,-53],[-13,-115],[13,-53],[-16,-28],[16,-34],[-28,-94],[11,-108],[-59,-63],[14,-37],[-51,-73],[60,-15],[88,-53],[-30,-54],[-19,-89],[-41,-131],[-117,-90],[-138,-298],[-31,-32],[-13,-90],[104,-6],[-17,-119],[10,-1],[-21,-143],[14,5],[-14,-106],[39,19],[77,-13],[31,16],[-6,-49]],[[11812,6885],[10,60],[-38,78],[-73,49],[-42,76],[-1,78],[-46,112],[15,53],[-24,86],[-23,-5],[-60,32],[-99,17],[-47,75],[-67,0],[-15,20],[-60,9]],[[11242,7625],[-83,91],[10,43],[-145,25],[-40,24],[66,400],[-99,140],[31,42],[83,11],[-17,47],[0,94],[-52,57],[-35,8],[-27,50],[-3,47],[-24,17]],[[10907,8721],[26,103],[-30,19],[-4,39],[-71,64],[16,42],[-4,62],[74,108],[7,64],[42,33],[-47,105],[12,22],[-25,66],[41,40],[-20,78]],[[10106,9227],[18,108],[-154,23],[2,85],[28,39],[23,91],[-18,31],[7,111],[-30,36]],[[10907,8721],[-344,55],[38,40],[12,71],[-44,8],[-29,74],[18,37],[-121,13],[-22,42],[6,55],[-45,43],[-38,0],[5,30],[-237,38]],[[10139,7556],[-153,25],[-90,96],[2,65]],[[9898,7742],[76,519],[73,475]],[[10047,8736],[48,334],[-4,67],[15,90]],[[11242,7625],[-36,-9],[-51,-78],[-25,-16],[-87,14],[-87,42],[-88,-15],[-34,7],[-72,58],[-66,-2],[-21,-65],[21,-26],[-58,-73],[-46,2],[-15,-44],[-79,-47],[8,-14],[-90,-4],[-116,14],[-36,22],[28,78],[-46,84],[-107,3]],[[9061,9978],[371,-59],[11,55],[84,-70],[224,-36],[168,-20]],[[10047,8736],[-523,83]],[[7609,11221],[-19,-23],[-22,-165],[-35,-27],[105,-146]],[[7638,10860],[-179,-64]],[[7459,10796],[-5,48],[-475,52]],[[6979,10896],[52,508],[20,77],[10,101],[26,128],[-45,25],[-57,8],[14,102],[14,-3],[12,101],[-87,145]],[[7905,10648],[3,-53],[-23,-6],[43,-51],[11,-56],[48,-3],[25,-28],[-79,-58],[-65,40],[-84,-3],[-37,62],[-29,14],[-78,-38],[-38,-5],[-61,-60],[-96,4],[-49,-20],[-56,-56],[-5,-89],[-20,-24]],[[7315,10218],[-30,-36],[-83,-10],[-38,10],[3,35],[-48,74],[-62,14],[-6,-41],[-67,16],[4,83],[15,55],[92,12],[46,39],[23,138],[33,14],[162,97],[100,78]],[[7638,10860],[25,9],[-13,-86],[146,-7],[42,20],[45,-34],[6,43],[61,-9]],[[6979,10896],[-264,29],[-25,7],[-629,92],[-100,12],[-67,-50],[26,-16],[-30,-23],[-63,43],[-117,14],[-102,80],[-345,50]],[[7315,10218],[-41,-89],[-8,-62],[16,-82],[-48,-36],[-84,-3],[-54,-26],[-54,-50],[-106,-15],[-65,-41],[-65,-57],[-11,-27],[-86,-84],[-55,-65],[-68,-4],[-61,-64],[-123,-108],[-56,-57],[-64,-1],[-106,16],[-198,-35]],[[9157,8051],[34,49],[57,34],[34,67],[23,85],[19,177],[0,101],[-10,113]],[[9898,7742],[-212,13],[-145,141],[-41,-104],[-80,-23],[-39,13],[-30,-35],[-167,276],[-27,28]],[[10139,7556],[-1,-104],[47,-37],[-7,-19],[-59,-26],[-19,-45],[-68,-97],[-64,-58],[-37,-106],[5,-44],[37,-2],[-31,-132],[-105,23],[-2,33],[-39,24],[-36,-26],[42,-96],[-34,-36],[18,-41],[-33,-8],[28,-81],[58,-69],[52,-13],[25,-42],[-28,-56],[-5,-92],[36,-54],[27,-5],[-10,-37],[-46,-16],[-86,53],[-28,54],[-23,-52],[-50,10],[-5,-24],[68,-10],[128,-58],[22,-44],[-6,-44],[26,-33],[45,-12],[2,-38],[33,-42],[-75,19],[-120,17],[-105,47],[-88,24],[-30,-7],[-98,33],[-141,21],[-33,-26],[-53,-12],[-33,-48],[-92,-11],[-76,-71],[-41,-56],[-10,-60],[-53,6],[-68,-39],[-42,-3],[-31,-74],[-38,-48],[8,-15],[-53,-87],[-2,-62],[-31,-40],[-7,-76],[48,-45],[-14,-14],[-40,34],[-37,-4],[-49,30],[-113,-50],[-24,13],[-94,-51],[-63,32],[-82,-13],[-54,-31],[6,-25],[-47,-16],[-17,17],[-56,-20],[-71,64],[-117,-16],[-45,-60],[-20,122],[16,53],[-63,77],[-29,62],[-191,219],[-141,133],[-48,58],[-77,69],[-51,61],[-59,45],[-92,111],[-80,53],[-13,28],[-55,34],[-11,47],[-54,19],[-65,55],[-182,115],[-96,86],[-24,0],[-54,63],[-90,67],[103,-34],[73,23],[51,-32],[160,-78],[35,8],[26,-22],[99,-33],[12,-71],[54,-71],[90,-53],[-9,-23],[29,-40],[48,-24],[236,-68],[154,-20],[144,27],[293,114],[110,32],[84,49],[51,17],[187,112],[47,41],[56,72],[18,69],[-71,67],[66,107],[41,47],[6,48],[34,1],[56,54],[65,89],[18,113],[-19,100],[39,30],[15,70],[68,10],[107,101],[47,74],[28,92],[27,52],[41,31],[17,47],[65,15]],[[9879,6705],[-27,-32],[-3,39],[30,-7]]],"transform":{"scale":[0.00015925990158944015,0.00012370686787447512],"translate":[143.63949000500008,-39.158391204431695]},"objects":{"SA3_2016_AUST":{"type":"GeometryCollection","geometries":[{"arcs":[[0,1,2,3,4,5]],"type":"Polygon","properties":{"SA3_CODE16":"20102","SA3_NAME16":"Creswick - Daylesford - Ballan","SA4_CODE16":"201","SA4_NAME16":"Ballarat","GCC_CODE16":"2RVIC","GCC_NAME16":"Rest of Vic.","STE_CODE16":"2","STE_NAME16":"Victoria","AREASQKM16":3666.673}},{"arcs":[[6,7,8,9,-5]],"type":"Polygon","properties":{"SA3_CODE16":"20302","SA3_NAME16":"Geelong","SA4_CODE16":"203","SA4_NAME16":"Geelong","GCC_CODE16":"2RVIC","GCC_NAME16":"Rest of Vic.","STE_CODE16":"2","STE_NAME16":"Victoria","AREASQKM16":918.8917}},{"arcs":[[[10,-9,11]],[[12]]],"type":"MultiPolygon","properties":{"SA3_CODE16":"20303","SA3_NAME16":"Surf Coast - Bellarine Peninsula","SA4_CODE16":"203","SA4_NAME16":"Geelong","GCC_CODE16":"2RVIC","GCC_NAME16":"Rest of Vic.","STE_CODE16":"2","STE_NAME16":"Victoria","AREASQKM16":929.9691}},{"arcs":[[[13,14]],[[15]],[[16]],[[17]],[[18]],[[19]],[[20]],[[21]],[[22]],[[23]],[[24]],[[25]],[[26]],[[27]],[[28]]],"type":"MultiPolygon","properties":{"SA3_CODE16":"20503","SA3_NAME16":"Gippsland - South West","SA4_CODE16":"205","SA4_NAME16":"Latrobe - Gippsland","GCC_CODE16":"2RVIC","GCC_NAME16":"Rest of Vic.","STE_CODE16":"2","STE_NAME16":"Victoria","AREASQKM16":4381.6191}},{"arcs":[[29,30,31,32,33,34,35]],"type":"Polygon","properties":{"SA3_CODE16":"20601","SA3_NAME16":"Brunswick - Coburg","SA4_CODE16":"206","SA4_NAME16":"Melbourne - Inner","GCC_CODE16":"2GMEL","GCC_NAME16":"Greater Melbourne","STE_CODE16":"2","STE_NAME16":"Victoria","AREASQKM16":20.4133}},{"arcs":[[36,37,38,-35]],"type":"Polygon","properties":{"SA3_CODE16":"20602","SA3_NAME16":"Darebin - South","SA4_CODE16":"206","SA4_NAME16":"Melbourne - Inner","GCC_CODE16":"2GMEL","GCC_NAME16":"Greater Melbourne","STE_CODE16":"2","STE_NAME16":"Victoria","AREASQKM16":14.0275}},{"arcs":[[-31,39,40,41]],"type":"Polygon","properties":{"SA3_CODE16":"20603","SA3_NAME16":"Essendon","SA4_CODE16":"206","SA4_NAME16":"Melbourne - Inner","GCC_CODE16":"2GMEL","GCC_NAME16":"Greater Melbourne","STE_CODE16":"2","STE_NAME16":"Victoria","AREASQKM16":18.215}},{"arcs":[[42,-40,-30,43,44,45]],"type":"Polygon","properties":{"SA3_CODE16":"20604","SA3_NAME16":"Melbourne City","SA4_CODE16":"206","SA4_NAME16":"Melbourne - Inner","GCC_CODE16":"2GMEL","GCC_NAME16":"Greater Melbourne","STE_CODE16":"2","STE_NAME16":"Victoria","AREASQKM16":31.4622}},{"arcs":[[46,-46,47,48,49,50]],"type":"Polygon","properties":{"SA3_CODE16":"20605","SA3_NAME16":"Port Phillip","SA4_CODE16":"206","SA4_NAME16":"Melbourne - Inner","GCC_CODE16":"2GMEL","GCC_NAME16":"Greater Melbourne","STE_CODE16":"2","STE_NAME16":"Victoria","AREASQKM16":25.6958}},{"arcs":[[51,52,53,54,-48,-45]],"type":"Polygon","properties":{"SA3_CODE16":"20606","SA3_NAME16":"Stonnington - West","SA4_CODE16":"206","SA4_NAME16":"Melbourne - Inner","GCC_CODE16":"2GMEL","GCC_NAME16":"Greater Melbourne","STE_CODE16":"2","STE_NAME16":"Victoria","AREASQKM16":11.9294}},{"arcs":[[55,56,-52,-44,-36,-39]],"type":"Polygon","properties":{"SA3_CODE16":"20607","SA3_NAME16":"Yarra","SA4_CODE16":"206","SA4_NAME16":"Melbourne - Inner","GCC_CODE16":"2GMEL","GCC_NAME16":"Greater Melbourne","STE_CODE16":"2","STE_NAME16":"Victoria","AREASQKM16":20.6163}},{"arcs":[[57,58,59,-53,-57,60,61]],"type":"Polygon","properties":{"SA3_CODE16":"20701","SA3_NAME16":"Boroondara","SA4_CODE16":"207","SA4_NAME16":"Melbourne - Inner East","GCC_CODE16":"2GMEL","GCC_NAME16":"Greater Melbourne","STE_CODE16":"2","STE_NAME16":"Victoria","AREASQKM16":60.0157}},{"arcs":[[62,-62,63,64,65]],"type":"Polygon","properties":{"SA3_CODE16":"20702","SA3_NAME16":"Manningham - West","SA4_CODE16":"207","SA4_NAME16":"Melbourne - Inner East","GCC_CODE16":"2GMEL","GCC_NAME16":"Greater Melbourne","STE_CODE16":"2","STE_NAME16":"Victoria","AREASQKM16":48.6724}},{"arcs":[[-58,-63,66,67,68]],"type":"Polygon","properties":{"SA3_CODE16":"20703","SA3_NAME16":"Whitehorse - West","SA4_CODE16":"207","SA4_NAME16":"Melbourne - Inner East","GCC_CODE16":"2GMEL","GCC_NAME16":"Greater Melbourne","STE_CODE16":"2","STE_NAME16":"Victoria","AREASQKM16":38.0551}},{"arcs":[[-50,69,70,71]],"type":"Polygon","properties":{"SA3_CODE16":"20801","SA3_NAME16":"Bayside","SA4_CODE16":"208","SA4_NAME16":"Melbourne - Inner South","GCC_CODE16":"2GMEL","GCC_NAME16":"Greater Melbourne","STE_CODE16":"2","STE_NAME16":"Victoria","AREASQKM16":37.2111}},{"arcs":[[-70,-49,-55,72,73,74,75]],"type":"Polygon","properties":{"SA3_CODE16":"20802","SA3_NAME16":"Glen Eira","SA4_CODE16":"208","SA4_NAME16":"Melbourne - Inner South","GCC_CODE16":"2GMEL","GCC_NAME16":"Greater Melbourne","STE_CODE16":"2","STE_NAME16":"Victoria","AREASQKM16":40.7002}},{"arcs":[[76,77,-71,-76,78]],"type":"Polygon","properties":{"SA3_CODE16":"20803","SA3_NAME16":"Kingston","SA4_CODE16":"208","SA4_NAME16":"Melbourne - Inner South","GCC_CODE16":"2GMEL","GCC_NAME16":"Greater Melbourne","STE_CODE16":"2","STE_NAME16":"Victoria","AREASQKM16":69.8633}},{"arcs":[[-60,79,-73,-54]],"type":"Polygon","properties":{"SA3_CODE16":"20804","SA3_NAME16":"Stonnington - East","SA4_CODE16":"208","SA4_NAME16":"Melbourne - Inner South","GCC_CODE16":"2GMEL","GCC_NAME16":"Greater Melbourne","STE_CODE16":"2","STE_NAME16":"Victoria","AREASQKM16":13.722}},{"arcs":[[-64,-61,-56,-38,80,81,82]],"type":"Polygon","properties":{"SA3_CODE16":"20901","SA3_NAME16":"Banyule","SA4_CODE16":"209","SA4_NAME16":"Melbourne - North East","GCC_CODE16":"2GMEL","GCC_NAME16":"Greater Melbourne","STE_CODE16":"2","STE_NAME16":"Victoria","AREASQKM16":62.6133}},{"arcs":[[-34,83,84,-81,-37]],"type":"Polygon","properties":{"SA3_CODE16":"20902","SA3_NAME16":"Darebin - North","SA4_CODE16":"209","SA4_NAME16":"Melbourne - North East","GCC_CODE16":"2GMEL","GCC_NAME16":"Greater Melbourne","STE_CODE16":"2","STE_NAME16":"Victoria","AREASQKM16":39.4436}},{"arcs":[[85,86,87,-65,-83,88]],"type":"Polygon","properties":{"SA3_CODE16":"20903","SA3_NAME16":"Nillumbik - Kinglake","SA4_CODE16":"209","SA4_NAME16":"Melbourne - North East","GCC_CODE16":"2GMEL","GCC_NAME16":"Greater Melbourne","STE_CODE16":"2","STE_NAME16":"Victoria","AREASQKM16":751.7682}},{"arcs":[[-89,-82,-85,89,90,91]],"type":"Polygon","properties":{"SA3_CODE16":"20904","SA3_NAME16":"Whittlesea - Wallan","SA4_CODE16":"209","SA4_NAME16":"Melbourne - North East","GCC_CODE16":"2GMEL","GCC_NAME16":"Greater Melbourne","STE_CODE16":"2","STE_NAME16":"Victoria","AREASQKM16":997.4394}},{"arcs":[[92,93,94,95,-32,-42]],"type":"Polygon","properties":{"SA3_CODE16":"21001","SA3_NAME16":"Keilor","SA4_CODE16":"210","SA4_NAME16":"Melbourne - North West","GCC_CODE16":"2GMEL","GCC_NAME16":"Greater Melbourne","STE_CODE16":"2","STE_NAME16":"Victoria","AREASQKM16":42.425}},{"arcs":[[96,-91,97,98,99,-2,100]],"type":"Polygon","properties":{"SA3_CODE16":"21002","SA3_NAME16":"Macedon Ranges","SA4_CODE16":"210","SA4_NAME16":"Melbourne - North West","GCC_CODE16":"2GMEL","GCC_NAME16":"Greater Melbourne","STE_CODE16":"2","STE_NAME16":"Victoria","AREASQKM16":992.107}},{"arcs":[[101,-84,-33,-96]],"type":"Polygon","properties":{"SA3_CODE16":"21003","SA3_NAME16":"Moreland - North","SA4_CODE16":"210","SA4_NAME16":"Melbourne - North West","GCC_CODE16":"2GMEL","GCC_NAME16":"Greater Melbourne","STE_CODE16":"2","STE_NAME16":"Victoria","AREASQKM16":30.3779}},{"arcs":[[102,103,104,-99]],"type":"Polygon","properties":{"SA3_CODE16":"21004","SA3_NAME16":"Sunbury","SA4_CODE16":"210","SA4_NAME16":"Melbourne - North West","GCC_CODE16":"2GMEL","GCC_NAME16":"Greater Melbourne","STE_CODE16":"2","STE_NAME16":"Victoria","AREASQKM16":260.6847}},{"arcs":[[-102,-95,105,-103,-98,-90]],"type":"Polygon","properties":{"SA3_CODE16":"21005","SA3_NAME16":"Tullamarine - Broadmeadows","SA4_CODE16":"210","SA4_NAME16":"Melbourne - North West","GCC_CODE16":"2GMEL","GCC_NAME16":"Greater Melbourne","STE_CODE16":"2","STE_NAME16":"Victoria","AREASQKM16":294.0954}},{"arcs":[[106,107,108,109,110,111]],"type":"Polygon","properties":{"SA3_CODE16":"21101","SA3_NAME16":"Knox","SA4_CODE16":"211","SA4_NAME16":"Melbourne - Outer East","GCC_CODE16":"2GMEL","GCC_NAME16":"Greater Melbourne","STE_CODE16":"2","STE_NAME16":"Victoria","AREASQKM16":118.3019}},{"arcs":[[-88,112,113,114,-67,-66]],"type":"Polygon","properties":{"SA3_CODE16":"21102","SA3_NAME16":"Manningham - East","SA4_CODE16":"211","SA4_NAME16":"Melbourne - Outer East","GCC_CODE16":"2GMEL","GCC_NAME16":"Greater Melbourne","STE_CODE16":"2","STE_NAME16":"Victoria","AREASQKM16":66.5619}},{"arcs":[[115,-114,116,-110]],"type":"Polygon","properties":{"SA3_CODE16":"21103","SA3_NAME16":"Maroondah","SA4_CODE16":"211","SA4_NAME16":"Melbourne - Outer East","GCC_CODE16":"2GMEL","GCC_NAME16":"Greater Melbourne","STE_CODE16":"2","STE_NAME16":"Victoria","AREASQKM16":61.1872}},{"arcs":[[-115,-116,-109,117,-68]],"type":"Polygon","properties":{"SA3_CODE16":"21104","SA3_NAME16":"Whitehorse - East","SA4_CODE16":"211","SA4_NAME16":"Melbourne - Outer East","GCC_CODE16":"2GMEL","GCC_NAME16":"Greater Melbourne","STE_CODE16":"2","STE_NAME16":"Victoria","AREASQKM16":26.5696}},{"arcs":[[-111,-117,-113,-87,118,119,120]],"type":"Polygon","properties":{"SA3_CODE16":"21105","SA3_NAME16":"Yarra Ranges","SA4_CODE16":"211","SA4_NAME16":"Melbourne - Outer East","GCC_CODE16":"2GMEL","GCC_NAME16":"Greater Melbourne","STE_CODE16":"2","STE_NAME16":"Victoria","AREASQKM16":1605.937}},{"arcs":[[121,-14,122,123,124,-120]],"type":"Polygon","properties":{"SA3_CODE16":"21201","SA3_NAME16":"Cardinia","SA4_CODE16":"212","SA4_NAME16":"Melbourne - South East","GCC_CODE16":"2GMEL","GCC_NAME16":"Greater Melbourne","STE_CODE16":"2","STE_NAME16":"Victoria","AREASQKM16":1282.327}},{"arcs":[[125,-112,-121,-125,126]],"type":"Polygon","properties":{"SA3_CODE16":"21202","SA3_NAME16":"Casey - North","SA4_CODE16":"212","SA4_NAME16":"Melbourne - South East","GCC_CODE16":"2GMEL","GCC_NAME16":"Greater Melbourne","STE_CODE16":"2","STE_NAME16":"Victoria","AREASQKM16":116.503}},{"arcs":[[127,128,129,-127,-124,130]],"type":"Polygon","properties":{"SA3_CODE16":"21203","SA3_NAME16":"Casey - South","SA4_CODE16":"212","SA4_NAME16":"Melbourne - South East","GCC_CODE16":"2GMEL","GCC_NAME16":"Greater Melbourne","STE_CODE16":"2","STE_NAME16":"Victoria","AREASQKM16":292.9259}},{"arcs":[[-79,-75,131,-107,-126,-130,132]],"type":"Polygon","properties":{"SA3_CODE16":"21204","SA3_NAME16":"Dandenong","SA4_CODE16":"212","SA4_NAME16":"Melbourne - South East","GCC_CODE16":"2GMEL","GCC_NAME16":"Greater Melbourne","STE_CODE16":"2","STE_NAME16":"Victoria","AREASQKM16":151.0513}},{"arcs":[[-74,-80,-59,-69,-118,-108,-132]],"type":"Polygon","properties":{"SA3_CODE16":"21205","SA3_NAME16":"Monash","SA4_CODE16":"212","SA4_NAME16":"Melbourne - South East","GCC_CODE16":"2GMEL","GCC_NAME16":"Greater Melbourne","STE_CODE16":"2","STE_NAME16":"Victoria","AREASQKM16":79.4733}},{"arcs":[[133,134,135,136,-104,-106,-94]],"type":"Polygon","properties":{"SA3_CODE16":"21301","SA3_NAME16":"Brimbank","SA4_CODE16":"213","SA4_NAME16":"Melbourne - West","GCC_CODE16":"2GMEL","GCC_NAME16":"Greater Melbourne","STE_CODE16":"2","STE_NAME16":"Victoria","AREASQKM16":106.8497}},{"arcs":[[-47,137,138,-135,139]],"type":"Polygon","properties":{"SA3_CODE16":"21302","SA3_NAME16":"Hobsons Bay","SA4_CODE16":"213","SA4_NAME16":"Melbourne - West","GCC_CODE16":"2GMEL","GCC_NAME16":"Greater Melbourne","STE_CODE16":"2","STE_NAME16":"Victoria","AREASQKM16":62.2158}},{"arcs":[[-43,-140,-134,-93,-41]],"type":"Polygon","properties":{"SA3_CODE16":"21303","SA3_NAME16":"Maribyrnong","SA4_CODE16":"213","SA4_NAME16":"Melbourne - West","GCC_CODE16":"2GMEL","GCC_NAME16":"Greater Melbourne","STE_CODE16":"2","STE_NAME16":"Victoria","AREASQKM16":31.2254}},{"arcs":[[-3,-100,-105,-137,140]],"type":"Polygon","properties":{"SA3_CODE16":"21304","SA3_NAME16":"Melton - Bacchus Marsh","SA4_CODE16":"213","SA4_NAME16":"Melbourne - West","GCC_CODE16":"2GMEL","GCC_NAME16":"Greater Melbourne","STE_CODE16":"2","STE_NAME16":"Victoria","AREASQKM16":671.9436}},{"arcs":[[-136,-139,141,-7,-4,-141]],"type":"Polygon","properties":{"SA3_CODE16":"21305","SA3_NAME16":"Wyndham","SA4_CODE16":"213","SA4_NAME16":"Melbourne - West","GCC_CODE16":"2GMEL","GCC_NAME16":"Greater Melbourne","STE_CODE16":"2","STE_NAME16":"Victoria","AREASQKM16":544.1195}},{"arcs":[[142,-77,-133,-129,143]],"type":"Polygon","properties":{"SA3_CODE16":"21401","SA3_NAME16":"Frankston","SA4_CODE16":"214","SA4_NAME16":"Mornington Peninsula","GCC_CODE16":"2GMEL","GCC_NAME16":"Greater Melbourne","STE_CODE16":"2","STE_NAME16":"Victoria","AREASQKM16":129.598}},{"arcs":[[[-144,-128,144]],[[145]]],"type":"MultiPolygon","properties":{"SA3_CODE16":"21402","SA3_NAME16":"Mornington Peninsula","SA4_CODE16":"214","SA4_NAME16":"Mornington Peninsula","GCC_CODE16":"2GMEL","GCC_NAME16":"Greater Melbourne","STE_CODE16":"2","STE_NAME16":"Victoria","AREASQKM16":724.1679}}]}}}